OBJECTID_1,OBJECTID,DIGEST,SITUS,TAXPIN,PARID,ATRPIN,TAX_DISTR,OWNER,OWPART2,ADDRESS1,ADDRESS2,ADDRESS3,ADDRESS5,LUC,NBHD,PROP_CLASS,CLASS,TOT_APPR,TOT_ASSESS,IMPR_APPR,LAND_APPR,FUL_EX_COD,VAL_ACRES,STRUCT_FLR,STRUCT_YR,TIEBACK,TAXYEAR,STATUS_COD,LIV_UNITS,PCODE,UNIT_NUM,EXTVER,PIN,OLD_ID,STR_NUMBER,ATLPIN,GIS_LAND_P,TaxPin_joi,address_no,taxpin4,APN,PARID_1,LandUse_Description,NPU,Neighborhood_Name,PARID_no_s,SCI_Landuse,Photographs,Lot_Condition,Structure_Condition,Sidewalks,Multiple_Violations
1590,2463,2010,1111 MORELAND AVE SE,14 00100007053,14 001000070531,14 -0010-0007-053-1,5,HENRICO MK L L C, ,80 SENOIA CT,SENOIA GA 30276, , ,348,C903,C3,C,824200,329680,113080,216600, ,0,0,1994, ,2010,6,0, ,53,20101028,14 00100007053,1.40E+12,1111 MORELAND AVE SE, ,0, 14 00100007053,0,7053, ,14 001000070531,CONVENIENCE FOOD MARKET 348,W,Ormewood Park,1.40E+12,C,0, , , , 
1679,2907,2010,825 MORELAND AVE SE,14 00110007066,14 001100070662,14 -0011-0007-066-2,5,CHANG SUN MIE, ,3425 SUGAR VALLEY TRL,ALPHARETTA GA 30022, , ,348,C902,C3,C,221000,88400,44760,43640, ,0,0,1965, ,2010,6,0, ,66,20101028,14 00110007066,1.40E+12,825 MORELAND AVE SE, ,0, 14 00110007066,0,7066, ,14 001100070662,CONVENIENCE FOOD MARKET 348,W,Ormewood Park,1.40E+12,C,0, , , , 
2429,1842,2010,1401 MORELAND AVE SE,14 0009  LL064,14 0009  LL0649,14 -0009-  LL-064-9,5,VIRGINIA HOLDING LLC, ,1401 MORELAND AVE SE,ATLANTA GA 30316, , ,348,C903,C3,C,960000,384000,151040,232960, ,0,0,2001, ,2010,6,0, ,64,20101028,14 0009  LL064,140009LL064,1401 MORELAND AVE SE, ,0, 14 0009  LL064,0,L064, ,14 0009  LL0649,CONVENIENCE FOOD MARKET 348,W,Custer/McDonough/Guice,140009LL064,C,0, , , , 
2641,1895,2010,1461 MORELAND AVE SE,14 0009  LL129,14 0009  LL1290,14 -0009-  LL-129-0,5,ALDI INC (GEORGIA), ,1985 OLD UNION CHURCH RD,SALISBURY NC 28146 7917, , ,347,C903,C4,C,1553800,621520,342200,279320, ,0,0,2007, ,2010,X,0, ,129,20101028,14 0009  LL129,140009LL129,1461 MORELAND AVE SE, ,0, 14 0009  LL129,0,L129, ,14 0009  LL1290,SUPERMARKET 347,W,Custer/McDonough/Guice,140009LL129,C,0, , , , 
2645,2099,2010,1257 MORELAND AVE SE,14 00090008029,14 000900080293,14 -0009-0008-029-3,5,ALTERMAN PROPERTIES LTD, ,3101 TOWER CREEK PKWY # 200,ATLANTA GA 30339, , ,347,C903,C3,C,725000,290000,80000,210000, ,0,0,1961, ,2010,6,0, ,29,20101028,14 00090008029,1.40E+12,1257 MORELAND AVE SE, ,0, 14 00090008029,0,8029, ,14 000900080293,SUPERMARKET 347,W,Woodland Hills,1.40E+12,C,0, , , , 
3018,1585,2010,840 MC DONOUGH BLVD SE,14 00080003013,14 000800030133,14 -0008-0003-013-3,5,MARTIN WALLACE, ,410 STANDING ROCK DR,ATLANTA GA 30331, , ,334,C903,C3,C,198300,79320,19720,59600, ,0,0,1960, ,2010,6,0, ,13,20101028,14 00080003013,1.40E+12,840 MC DONOUGH BLVD SE, ,0, 14 00080003013,0,3013, ,14 000800030133,SERVICE STATION W/O BAYS 334,W,Custer/McDonough/Guice,1.40E+12,C,0, , , , 
3635,4421,2010,29 MORELAND AVE SE,14 00130004098,14 001300040986,14 -0013-0004-098-6,5,DECATUR PROPERTIES IV INC, ,1122 PACE ST FLOOR 1ST,COVINGTON GA 30014, , ,347,CA07,C3,C,869100,347640,158640,189000, ,0,0,1963, ,2010,6,0, ,98,20101028,14 00130004098,1.40E+12,29 MORELAND AVE SE, ,0, 14 00130004098,0,4098, ,14 001300040986,SUPERMARKET 347,N,Reynoldstown,1.40E+12,C,0, , , , 
4524,6138,2010,372 MORELAND AVE NE,14 00150013051,14 001500130512,14 -0015-0013-051-2,5,GRADE INC, ,6142 OLD DIXIE HWY,FOREST PARK GA 30297, , ,348,CA03,C3,C,997600,399040,290000,109040, ,0,0,1966, ,2010,6,0, ,51,20101028,14 00150013051,1.40E+12,372 MORELAND AVE NE, ,0, 14 00150013051,0,3051, ,14 001500130512,CONVENIENCE FOOD MARKET 348,N,Inman Park,1.40E+12,C,0, , , , 
4528,6142,2010,350 MORELAND AVE NE,14 00150013064,14 001500130645,14 -0015-0013-064-5,5,HENRICO MK LLC, ,80 SENOIA CT,SENOIA GA 30276, , ,348,CA03,C3,C,1523400,609360,135280,474080, ,0,0,1999, ,2010,6,0, ,64,20101028,14 00150013064,1.40E+12,350 MORELAND AVE NE, ,0, 14 00150013064,0,3064, ,14 001500130645,CONVENIENCE FOOD MARKET 348,N,Inman Park,1.40E+12,C,0, , , , 
4773,5796,2010,1079 NORTH AVE NE,14 00150003080,14 001500030803,14 -0015-0003-080-3,5,COREY WILLIAM E, ,225 COREY CENTER SE # 1,ATLANTA GA 30312, , ,348,CA03,C3,C,491000,196400,107280,89120, ,0,0,1960, ,2010,6,0, ,80,20101028,14 00150003080,1.40E+12,1079 NORTH AVE NE, ,0, 14 00150003080,0,3080, ,14 001500030803,CONVENIENCE FOOD MARKET 348,N,Poncey-Highland,1.40E+12,C,photos\39\6039\img_rpt-elessiapalmer_at_yahoo_dot_com-2011-12-12-9-31-21_1.jpg,Good,Poor,Yes,Not Visible
4833,5816,2010,1085 NORTH AVE NE,14 00150003114,14 001500031140,14 -0015-0003-114-0,5,U S ENTERPRISES INC, ,225 COREY CENTER SE STE # 1,ATLANTA GA 30312, , ,348,CA03,C3,C,756700,302680,43040,259640, ,0,0,1988, ,2010,6,0, ,114,20101028,14 00150003114,1.40E+12,1085 NORTH AVE NE, ,0, 14 00150003114,0,3114, ,14 001500031140,CONVENIENCE FOOD MARKET 348,N,Poncey-Highland,1.40E+12,C,0, , , , 
5312,6132,2010,1111 EUCLID AVE NE,14 00150013042,14 001500130421,14 -0015-0013-042-1,5,BANKS IRVING FAMILY TRUST, ,8180 SULLIVAN HILL RD,ATLANTA GA 30350, , ,347,CA03,C3,C,966000,386400,80720,305680, ,0.37,0,1960, ,2010,6,0, ,42,20101028,14 00150013042,1.40E+12,1111 EUCLID AVE NE, ,0, 14 00150013042,0,3042, ,14 001500130421,SUPERMARKET 347,N,Inman Park,1.40E+12,C,photos\83\154289\img_rpt-willc0427_at_gmail_dot_com-2012-4-6-15-53-56_1.jpg,Fair,Fair,Yes,N
5700,5000,2010,247 MORELANDALS RD,14 00130011072,14 001300110722,14 -0013-0011-072-2,5,GEORGIA ALABAMA COMMERCIAL INVESTMENTS, ,2875 UNIVERSITY PKWY,LAWRENCEVILLE GA 30043, , ,334,CA07,C3,C,453000,181200,95640,85560, ,0,0,1986, ,2010,6,0, ,72,20101028,14 00130011072,1.40E+12,247 MORELANDALS RD, ,0, 14 00130011072,0,1072, ,14 001300110722,SERVICE STATION W/O BAYS 334,N,Reynoldstown,1.40E+12,C,0, , , , 
5957,4852,2010,142 FLAT SHOALS AVE SE,14 00130009053,14 001300090536,14 -0013-0009-053-6,5,ASHER ABRAHAM, ,1467 BILTMORE DR,ATLANTA GA 30329, , ,348,CA07,C3,C,121000,48400,26200,22200, ,0,0,0, ,2010,6,0, ,53,20101028,14 00130009053,1.40E+12,142 FLAT SHOALS AVE SE, ,0, 14 00130009053,0,9053, ,14 001300090536,CONVENIENCE FOOD MARKET 348,N,Reynoldstown,1.40E+12,C,photos\51\139185\img_rpt-javioushill_at_yahoo_dot_com-2012-3-22-14-3-33_1.jpg,Good,Good,Yes,N
7489,6904,2010,664 CLEBURNE TER NE,14 00160011085,14 001600110851,14 -0016-0011-085-1,5,ATL PX LLC, ,5370 OAKDALE RD,TAX DEPT,SMYRNA GA 30082, ,347,CA02,C4,C,7323000,2929200,1119000,1810200, ,3.36,0,2001, ,2010,6,0, ,85,20101028,14 00160011085,1.40E+12,664 CLEBURNE TER NE, ,0, 14 00160011085,0,1085, ,14 001600110851,SUPERMARKET 347,N,Poncey-Highland,1.40E+12,C,photos\123\180735\img_rpt-shandra_at_tapinspect_dot_com-2012-5-25-11-39-39_1.jpg,Good,No Structure,Yes,N
7862,7006,2010,1161 PONCE DE LEON AVE NE,14 00160013023,14 001600130230,14 -0016-0013-023-0,5,FLOCO LLC, ,PO BOX 1565,LAWRENCEVILLE GA 30046, , ,333,CA02,C3,C,1343700,537480,58000,479480, ,0.69,0,1970, ,2010,6,3, ,23,20101028,14 00160013023,1.40E+12,1161 PONCE DE LEON AVE NE, ,0, 14 00160013023,0,3023, ,14 001600130230,SERVICE STATION WITH BAYS 333,N,Poncey-Highland,1.40E+12,C,photos\125\151772\img_rpt-zack_at_tapinspect_dot_com-2012-4-12-12-30-59_1.jpg,Fair,Fair,Yes,N
8280,7924,2010,699 PONCE DE LEON AVE NE,14 00170011067,14 001700110678,14 -0017-0011-067-8,5,KROGER CO THE, ,2175 PARKLAKE DR NE,ATTN: REAL ESTATE DEP,ATLANTA GA 30345, ,347,CA02,C4,C,10555700,4222280,1184360,3037920, ,0,0,1986, ,2010,6,0, ,67,20101028,14 00170011067,1.40E+12,699 PONCE DE LEON AVE NE, ,0, 14 00170011067,0,1067, ,14 001700110678,SUPERMARKET 347,N,Poncey-Highland,1.40E+12,C,0, , , , 
9516,10853,2010,GLENWOOD AVE SE,14 00210004081,14 002100040812,14 -0021-0004-081-2,5,SADLER JANIE, ,428 BOULEVARD SE,ATLANTA GA 30312 3426, , ,323,C902,C3,C,69400,27760,19400,8360, ,0,0,1999, ,2010,6,0, ,81,20101028,14 00210004081,1.40E+12,GLENWOOD AVE SE, ,0, 14 00210004081,0,4081, ,14 002100040812,FOOD STANDS 323,W,Grant Park,1.40E+12,C,0, , , , 
9949,10969,2010,448 BOULEVARD AVE SE,14 00210006106,14 002100061065,14 -0021-0006-106-5,5,A N A DEVELOPMENTS LLC, ,3020 ADRIATIC CT,NORCROSS GA 30071 1207, , ,348,C902,C3,C,923200,369280,168240,201040, ,0,0,1997, ,2010,6,0, ,106,20101028,14 00210006106,1.40E+12,448 BOULEVARD AVE SE, ,0, 14 00210006106,0,6106, ,14 002100061065,CONVENIENCE FOOD MARKET 348,W,Grant Park,1.40E+12,C,0, , , , 
11315,12402,2010,1460 BOULEVARD SE,14 00240002056,14 002400020563,14 -0024-0002-056-3,5,GARCIA WILLIAM, ,2102 ARGO DR,HAPEVILLE GA 30354, , ,347,C903,C3,C,488000,195200,144520,50680, ,0,0,1950, ,2010,6,0, ,56,20101028,14 00240002056,1.40E+12,1460 BOULEVARD SE, ,0, 14 00240002056,0,2056, ,14 002400020563,SUPERMARKET 347,W,Benteen Park,1.40E+12,C,0,Poor,Fair,Yes,N
11712,12501,2010,1362 BOULEVARD SE,14 00240005047,14 002400050479,14 -0024-0005-047-9,5,AZNA ENTERPRISES INC, ,1362 BOULEVARD SE,ATLANTA GA 30315, , ,348,C903,C3,C,750000,300000,79680,220320, ,0,0,1980, ,2010,6,0, ,47,20101028,14 00240005047,1.40E+12,1362 BOULEVARD SE, ,0, 14 00240005047,0,5047, ,14 002400050479,CONVENIENCE FOOD MARKET 348,W,Benteen Park,1.40E+12,C,0, , , , 
13329,13641,2010,807 CONLEY RD SE,14 0032  LL021,14 0032  LL0210,14 -0032-  LL-021-0,5,CONLEY COMMERCIAL HOLDINGS INC, ,807 CONLEY RD,ATLANTA GA 30354, , ,348,C905,C3,C,398300,159320,59760,99560, ,0.89,0,1958, ,2010,6,0, ,21,20101028,14 0032  LL021,140032LL021,807 CONLEY RD SE, ,0, 14 0032  LL021,0,L021, ,14 0032  LL0210,CONVENIENCE FOOD MARKET 348,Z,South River Gardens,140032LL021,C,0, , , , 
13372,13650,2010,3819 JONESBORO RD SE,14 0032  LL064,14 0032  LL0640,14 -0032-  LL-064-0,5,GJ FIFTY OIL LLC, ,130 SOUTHMOOR LANE,FAYETTEVILLE GA 30215, , ,348,C905,C3,C,1533000,613200,332400,280800, ,1.17,0,1997, ,2010,6,0, ,64,20101028,14 0032  LL064,140032LL064,3819 JONESBORO RD SE, ,0, 14 0032  LL064,0,L064, ,14 0032  LL0640,CONVENIENCE FOOD MARKET 348,Z,South River Gardens,140032LL064,C,photos\123\175269\img_rpt-shandra_at_tapinspect_dot_com-2012-5-15-12-23-36_1.jpg,Good,Good,Yes,N
13423,13665,2010,3843 JONESBORO RD SE,14 0032  LL095,14 0032  LL0954,14 -0032-  LL-095-4,5,BUDDYS INVESTMENTS INC, ,3843 JONESBORO RD,ATLANTA GA 30354, , ,348,C905,C3,C,975000,390000,190920,199080, ,0.83,0,1982, ,2010,J,0, ,95,20101028,14 0032  LL095,140032LL095,3843 JONESBORO RD SE, ,0, 14 0032  LL095,0,L095, ,14 0032  LL0954,CONVENIENCE FOOD MARKET 348,Z,South River Gardens,140032LL095,C,photos\123\175167\img_rpt-shandra_at_tapinspect_dot_com-2012-5-15-12-26-51_1.jpg,Good,Good,Yes,N
13453,14068,2010,3015 JONESBORO RD SE,14 00350001021,14 003500010215,14 -0035-0001-021-5,5,REHMAN RAZAUR, ,586 LANE ST,ROCKMART GA 30153, , ,348,C905,C3,C,405900,162360,79720,82640, ,0.99,0,1989, ,2010,6,0, ,21,20101028,14 00350001021,1.40E+12,3015 JONESBORO RD SE, ,0, 14 00350001021,0,1021, ,14 003500010215,CONVENIENCE FOOD MARKET 348,Z,Orchard Knob,1.40E+12,C,photos\123\175183\img_rpt-shandra_at_tapinspect_dot_com-2012-5-15-11-58-26_1.jpg,Good,Good,Yes,N
13503,14078,2010,3012 JONESBORO RD SE,14 00350001041,14 003500010413,14 -0035-0001-041-3,5,JONESBORO ROAD CENTER LLC, ,P O BOX 1565,LAWRENCEVILLE GA 30046 1565, , ,348,C905,C3,C,1003600,401440,335280,66160, ,1.01,0,1980, ,2010,6,0, ,41,20101028,14 00350001041,1.40E+12,3012 JONESBORO RD SE, ,0, 14 00350001041,0,1041, ,14 003500010413,CONVENIENCE FOOD MARKET 348,Z,South River Gardens,1.40E+12,C,photos\130\174791\img_rpt-tabatha_at_tapinspect_dot_com-2012-5-15-11-57-29_1.jpg,Good,Good,Yes,N
13623,13148,2010,2489 JONESBORO RD SE,14 0028  LL075,14 0028  LL0752,14 -0028-  LL-075-2,5,SON CHIL Y, ,594 WARD MEADE DR # SE,MARIETTA GA 30067 5057, , ,348,C905,C3,C,166100,66440,37160,29280, ,0.23,0,1975, ,2010,6,0, ,75,20101028,14 0028  LL075,140028LL075,2489 JONESBORO RD SE, ,0, 14 0028  LL075,0,L075, ,14 0028  LL0752,CONVENIENCE FOOD MARKET 348,Z,Browns Mill Park,140028LL075,C,photos\123\175237\img_rpt-shandra_at_tapinspect_dot_com-2012-5-15-11-28-14_1.jpg,Fair,No Structure,Yes,N
13766,12997,2010,2220 JONESBORO RD SE,14 00270001008,14 002700010082,14 -0027-0001-008-2,5,JENKINS JAMES E, ,2220 JONESBORO RD SE,ATLANTA GA 30315, , ,333,C904,C3,C,360700,144280,86240,58040, ,0.57,0,1980, ,2010,6,0, ,8,20101028,14 00270001008,1.40E+12,2220 JONESBORO RD SE, ,0, 14 00270001008,0,1008, ,14 002700010082,SERVICE STATION WITH BAYS 333,Z,Norwood Manor,1.40E+12,C,photos\130\174723\img_rpt-tabatha_at_tapinspect_dot_com-2012-5-15-11-19-11_1.jpg,Good,Good,Yes,N
14381,15729,2010,1465 BOULEVARD SE,14 00410010095,14 004100100950,14 -0041-0010-095-0,5,HENRICO MK L L C, ,80 SENOIA CT,SENOIA GA 30276, , ,348,C901,C3,C,605600,242240,161280,80960, ,0.34,0,2002, ,2010,6,0, ,95,20101028,14 00410010095,1.40E+12,1465 BOULEVARD SE, ,0, 14 00410010095,0,95, ,14 004100100950,CONVENIENCE FOOD MARKET 348,Y,Chosewood Park,1.40E+12,C,0, , , , 
15667,15047,2010,1867 JONESBORO RD SE,14 00390005090,14 003900050902,14 -0039-0005-090-2,5,TANNI ENTERPRISES INC, ,1885 JONESBORO RD,ATLANTA GA 30315, , ,348,C904,C3,C,222600,89040,40240,48800, ,0.41,0,1970, ,2010,6,0, ,90,20101028,14 00390005090,1.40E+12,1867 JONESBORO RD SE, ,0, 14 00390005090,0,5090, ,14 003900050902,CONVENIENCE FOOD MARKET 348,Y,Lakewood Heights,1.40E+12,C,photos\123\175056\img_rpt-shandra_at_tapinspect_dot_com-2012-5-15-10-57-55_1.jpg,Good,No Structure,Yes,N
17681,16819,2010,371 BOULEVARD SE,14 00440003075,14 004400030758,14 -0044-0003-075-8,05W,PARKASH OM TR, ,2310 HOPEWELL PLANTATION DR,O K OIL INC,ALPHARETTA GA 30004, ,348,CA06,C3,C,1246400,498560,242040,256520, ,0.65,0,1992, ,2010,6,0, ,75,20101028,14 00440003075,1.40E+12,371 BOULEVARD SE, ,0, 14 00440003075,0,3075, ,14 004400030758,CONVENIENCE FOOD MARKET 348,W,Grant Park,1.40E+12,C,0, , , , 
17815,18733,2010,111 BOULEVARD NE,14 00460012221,14 004600122215,14 -0046-0012-221-5,05W,BAY COUNTY ENTERPRISES L L C, ,3970 ROGERS BRIDGE RD,DULUTH GA 30097, , ,333,CA05,C3,C,911200,364480,5360,359120, ,0,0,1990, ,2010,6,0, ,221,20101028,14 00460012221,1.40E+12,111 BOULEVARD NE, ,0, 14 00460012221,0,2221, ,14 004600122215,SERVICE STATION WITH BAYS 333,M,Old Fourth Ward,1.40E+12,C,photos\163\195906\img_rpt-user22_at_apdsolutions_dot_com-2012-8-7-12-57-31_1.jpg,Good,Good,No,N
18650,18537,2010,400 EDGEWOOD AVE NE,14 00460010239,14 004600102399,14 -0046-0010-239-9,05W,FOUR HUNDRED EDGEWOOD LLC, ,615 CROYDON LN,ALPHARETTA GA 30022, , ,348,CA05,C3,C,493500,197400,34280,163120, ,0,0,1962, ,2010,6,0, ,239,20101028,14 00460010239,1.40E+12,400 EDGEWOOD AVE NE, ,0, 14 00460010239,0,239, ,14 004600102399,CONVENIENCE FOOD MARKET 348,M,Sweet Auburn,1.40E+12,C,photos\27\124663\img_rpt-rrdw777_at_gmail_dot_com-2012-2-25-11-58-28_1.jpg,Good,Good,Yes,N
18702,17700,2010,345 EDGEWOOD AVE SE,14 00450001009,14 004500010098,14 -0045-0001-009-8,05W,G G WHITE L L C, ,P.O. BOX 43330,ATLANTA GA 30336, , ,348,CA05,C3,C,707600,283040,103040,180000, ,0.23,0,1920, ,2010,6,0, ,9,20101028,14 00450001009,1.40E+12,345 EDGEWOOD AVE SE, ,0, 14 00450001009,0,1009, ,14 004500010098,CONVENIENCE FOOD MARKET 348,M,Sweet Auburn,1.40E+12,C,photos\123\151476\img_rpt-shandra_at_tapinspect_dot_com-2012-4-11-11-18-20_1.jpg,Good,Good,Yes,N
18861,17736,2010,377 EDGEWOOD AVE SE,14 00450002001,14 004500020014,14 -0045-0002-001-4,05W,THREE SEVENTY SEVEN EDGEWOOD, ,332 FOURTH ST # 8,ATLANTA GA 30308, , ,333,CA05,H3,H,389100,80480,13560,66920, ,0,0,1950, ,2010,6,0, ,1,20101028,14 00450002001,1.40E+12,377 EDGEWOOD AVE SE, ,0, 14 00450002001,0,2001, ,14 004500020014,SERVICE STATION WITH BAYS 333,M,Sweet Auburn,1.40E+12,C,photos\123\151489\img_rpt-shandra_at_tapinspect_dot_com-2012-4-11-11-22-58_1.jpg,Good,Good,Yes,N
19758,19591,2010,605 BOULEVARD NE,14 00470003135,14 004700031357,14 -0047-0003-135-7,5,BERHANU SHEFERAW H, ,605 BOULEVARD AVE,ATLANTA GA 30308, , ,326,CA03,C3,C,1036800,414720,154320,260400, ,0,0,1985, ,2010,6,0, ,135,20101028,14 00470003135,1.40E+12,605 BOULEVARD NE, ,0, 14 00470003135,0,3135, ,14 004700031357,CONVENIENCE / FAST FOOD MARKET 326*,M,Old Fourth Ward,1.40E+12,C,photos\162\195690\img_rpt-user10_at_apdsolutions_dot_com-2012-8-8-0-52-36_1.jpg,Good,Good,Yes,N
19773,19813,2010,356 BOULEVARD NE,14 00470008126,14 004700081261,14 -0047-0008-126-1,5,BOULEVARD C STORE INC, ,80 SENOIA CT,SENOIA GA 30276, , ,348,CA03,C3,C,1000000,400000,98920,301080, ,0.9,0,1976, ,2010,6,0, ,126,20101028,14 00470008126,1.40E+12,356 BOULEVARD NE, ,0, 14 00470008126,0,8126, ,14 004700081261,CONVENIENCE FOOD MARKET 348,M,Old Fourth Ward,1.40E+12,C,photos\162\196864\img_rpt-user10_at_apdsolutions_dot_com-2012-8-7-12-53-36_1.jpg,Good,Good,Yes,N
21061,20953,2010,486 PONCE DE LEON AVE NE,14 00480007081,14 004800070818,14 -0048-0007-081-8,5,HENRICO M K  L L C, ,80 SENOIA CT,SENOIA GA 30276, , ,348,CA02,C3,C,1109200,443680,27800,415880, ,0.47,0,1991, ,2010,6,0, ,81,20101028,14 00480007081,1.40E+12,486 PONCE DE LEON AVE NE, ,0, 14 00480007081,0,7081, ,14 004800070818,CONVENIENCE FOOD MARKET 348,E,Midtown,1.40E+12,C,photos\30\115340\img_rpt-thknowles_at_yahoo_dot_com-2012-2-18-12-51-3_2.jpg,Good,Good,Yes,N
21122,21183,2010,513 PONCE DE LEON AVE NE,14 00480011070,14 004800110705,14 -0048-0011-070-5,5,JODACO INC, ,P.O. BOX 130,NEWNAN GA 30264, , ,348,CA02,C3,C,293000,117200,88200,29000, ,0,0,1978, ,2010,6,0, ,70,20101028,14 00480011070,1.40E+12,513 PONCE DE LEON AVE NE, ,0, 14 00480011070,0,1070, ,14 004800110705,CONVENIENCE FOOD MARKET 348,M,Old Fourth Ward,1.40E+12,C,0, , , , 
22489,23606,2010,180 PONCE DE LEON AVE,14 00490010132,14 004900101323,14 -0049-0010-132-3,5,ONE TEN SERVICE INC, ,180 PONCE DE LEON AVE,ATLANTA GA 30308, , ,348,CB03,C3,C,1800000,720000,124600,595400, ,0,0,2002, ,2010,P,0, ,132,20101028,14 00490010132,1.40E+12,180 PONCE DE LEON AVE, ,0, 14 00490010132,0,132, ,14 004900101323,CONVENIENCE FOOD MARKET 348,E,Midtown,1.40E+12,C,0, , , , 
22728,23478,2010,160 PONCE DE LEON AVE NE,14 00490009033,14 004900090336,14 -0049-0009-033-6,5,PONCE DE LEON 00791 LLC, ,16413 N NINETY FIRST ST SUITE C-140,SCOTTSDALE AZ 85260, , ,348,CB03,C3,C,1608000,643200,81880,561320, ,0,0,2004, ,2010,6,0, ,33,20101028,14 00490009033,1.40E+12,160 PONCE DE LEON AVE NE, ,0, 14 00490009033,0,9033, ,14 004900090336,CONVENIENCE FOOD MARKET 348,E,Midtown,1.40E+12,C,0, , , , 
24442,24812,2010,150 PINE ST NE,14 00500005018,14 005000050187,14 -0050-0005-018-7,05F,REEVE JAMES J JR, ,1246 CUMBERLAND RD NE,ATLANTA GA 30306, , ,326,CB07,C3,C,278900,111560,1120,110440, ,0.13,0,0, ,2010,6,0, ,18,20101028,14 00500005018,1.40E+12,150 PINE ST NE, ,0, 14 00500005018,0,5018, ,14 005000050187,CONVENIENCE / FAST FOOD MARKET 326*,M,Downtown,1.40E+12,C,0, , , , 
26804,25427,2010,160 JOHN WESLEY DOBBS,14 00510008097,14 005100080977,14 -0051-0008-097-7,05F,FRANKLIN ROAD AMOCO INC, ,160 JOHN WESLEY DOBBS,ATLANTA GA 30303, , ,348,CB04,C3,C,1290300,516120,73400,442720, ,0,0,1955, ,2010,6,2, ,97,20101028,14 00510008097,1.40E+12,160 JOHN WESLEY DOBBS, ,0, 14 00510008097,0,8097, ,14 005100080977,CONVENIENCE FOOD MARKET 348,M,Downtown,1.40E+12,C,0, , , , 
26952,26080,2010,241 MEMORIAL DR SE,14 00530003109,14 005300031093,14 -0053-0003-109-3,05W,JACKSON & JACKSON L L C, ,221 NORTH THIRD ST,FERNANDINA BEACH FL 32034, , ,348,CA06,C3,C,458800,183520,57160,126360, ,0,0,1958, ,2010,6,0, ,109,20101028,14 00530003109,1.40E+12,241 MEMORIAL DR SE, ,0, 14 00530003109,0,3109, ,14 005300031093,CONVENIENCE FOOD MARKET 348,W,Grant Park,1.40E+12,C,0, , , , 
26953,26081,2010,387 HILL ST SE,14 00530003110,14 005300031101,14 -0053-0003-110-1,05W,GEORGIA-ALABAMA COMMERCIAL INVESTMENTS, ,2875 UNIVERSITY PKWY,LAWRENCEVILLE GA 30043, , ,348,CA06,C3,C,1042500,417000,184360,232640, ,0,0,2004, ,2010,6,0, ,110,20101028,14 00530003110,1.40E+12,387 HILL ST SE, ,0, 14 00530003110,0,3110, ,14 005300031101,CONVENIENCE FOOD MARKET 348,W,Grant Park,1.40E+12,C,photos\51\1371\img_rpt-javioushill_at_yahoo_dot_com-2011-12-7-14-2-50_1.jpg,Good,Good,Yes,N
26954,26082,2010,364 HILL ST SE,14 00530003111,14 005300031119,14 -0053-0003-111-9,05W,OMKAR SINGH ENTERPRISES INC, ,364 HILL ST,ATLANTA GA 30312, , ,348,CA06,C3,C,689200,275680,67760,207920, ,0,0,1987, ,2010,6,0, ,111,20101028,14 00530003111,1.40E+12,364 HILL ST SE, ,0, 14 00530003111,0,3111, ,14 005300031119,CONVENIENCE FOOD MARKET 348,W,Grant Park,1.40E+12,C,photos\51\1390\img_rpt-javioushill_at_yahoo_dot_com-2011-12-7-14-0-53_1.jpg,Good,Good,Yes,N
27642,28425,2010,105 MC DONOUGH BLVD SE,14 00560005061,14 005600050611,14 -0056-0005-061-1,5,JOHNSON HERMAN SR, ,105 MCDONOUGH BLV SE,ATLANTA GA 30315, , ,333,C901,C3,C,162600,65040,21360,43680, ,0.18,0,1950, ,2010,6,0, ,61,20101028,14 00560005061,1.40E+12,105 MC DONOUGH BLVD SE, ,0, 14 00560005061,0,5061, ,14 005600050611,SERVICE STATION WITH BAYS 333,Y,South Atlanta,1.40E+12,C,0, , , , 
27749,28458,2010,306 MILTON AVE SE,14 00560007023,14 005600070239,14 -0056-0007-023-9,5,FOUCH BERNICE, ,745 LEE ANDREWS AVE SE,ATLANTA GA 30315, , ,334,C901,C3,C,26700,10680,2240,8440, ,0.04,0,1933, ,2010,6,0, ,23,20101028,14 00560007023,1.40E+12,306 MILTON AVE SE, ,0, 14 00560007023,0,7023, ,14 005600070239,SERVICE STATION W/O BAYS 334,Y,Chosewood Park,1.40E+12,C,0, , , , 
28336,27525,2010,112 ORMOND ST SE,14 00540008175,14 005400081758,14 -0054-0008-175-8,5,YUM JIM TAE ET AL, ,112 ORMOND ST SE,ATLANTA GA 30315, , ,347,C918,C3,C,485700,194280,84480,109800, ,0.28,0,1967, ,2010,M,0, ,175,20101028,14 00540008175,1.40E+12,112 ORMOND ST SE, ,0, 14 00540008175,0,8175, ,14 005400081758,SUPERMARKET 347,V,Summerhill,1.40E+12,C,photos\53\2321\img_rpt-hillglenda_at_ymail_dot_com-2011-12-7-14-55-32_1.jpg,Fair,Fair,Yes,N
28608,27377,2010,834 HANK AARON DR SE,14 00540007149,14 005400071494,14 -0054-0007-149-4,05P,NGUYEN TUNG  ET AL, ,778 VINNINGS ESTATE DR SE,MABLETON GA 30126, , ,348,C918,C3,C,533900,213560,26320,187240, ,0.44,0,1964, ,2010,6,0, ,149,20101028,14 00540007149,1.40E+12,834 HANK AARON DR SE, ,0, 14 00540007149,0,7149, ,14 005400071494,CONVENIENCE FOOD MARKET 348,V,Summerhill,1.40E+12,C,0, , , , 
29379,30347,2010,8 CLEVELAND AVE SE,14 00600004072,14 006000040723,14 -0060-0004-072-3,5,BRANTLEY CLARENCE, ,1981 VENETIAN DR SW,ATLANTA GA 30311, , ,333,C905,C3,C,104100,41640,11520,30120, ,0.4,0,1958, ,2010,6,0, ,72,20101028,14 00600004072,1.40E+12,8 CLEVELAND AVE SE, ,0, 14 00600004072,0,4072, ,14 006000040723,SERVICE STATION WITH BAYS 333,Z,Browns Mill Park,1.40E+12,C,0, , , , 
29542,30396,2010,121 CLEVELAND AVE SE,14 0061  LL059,14 0061  LL0594,14 -0061-  LL-059-4,5,REHMAN RAZAUR, ,568 LANE ST,ROCKMART GA 30153, , ,348,C905,C3,C,1284500,513800,345120,168680, ,0.7,0,1975, ,2010,6,0, ,59,20101028,14 0061  LL059,140061LL059,121 CLEVELAND AVE SE, ,0, 14 0061  LL059,0,L059, ,14 0061  LL0594,CONVENIENCE FOOD MARKET 348,Z,Glenrose Heights,140061LL059,C,0, , , , 
29665,29175,2010,1634 LAKEWOOD AVE SE,14 00570017021,14 005700170210,14 -0057-0017-021-0,5,PARK GYEONG HO & SEUNG NAM, ,5040 HUNTWOOD WAY,ROSWELL GA 30075, , ,348,C901,C3,C,137400,54960,25400,29560, ,0.08,0,1960, ,2010,6,0, ,21,20101028,14 00570017021,1.40E+12,1634 LAKEWOOD AVE SE, ,0, 14 00570017021,0,7021, ,14 005700170210,CONVENIENCE FOOD MARKET 348,Y,Lakewood Heights,1.40E+12,C,photos\53\86370\img_rpt-hillglenda_at_ymail_dot_com-2012-1-26-10-45-54_1.jpg,Fair,Fair,Yes,N
29682,29399,2010,1681 JONESBORO RD SE,14 00570026015,14 005700260151,14 -0057-0026-015-1,5,NOBLE REALTY, ,P O BOX 398,FAIRBURN GA 30213, , ,347,C901,C3,C,246500,98600,56480,42120, ,0.3,0,1950, ,2010,6,0, ,15,20101028,14 00570026015,1.40E+12,1681 JONESBORO RD SE, ,0, 14 00570026015,0,6015, ,14 005700260151,SUPERMARKET 347,Y,Lakewood Heights,1.40E+12,C,photos\123\175033\img_rpt-shandra_at_tapinspect_dot_com-2012-5-15-10-51-48_1.jpg,Good,Deteriorated,Yes,N
29725,29194,2010,1683 LAKEWOOD AVE SE,14 00570017046,14 005700170467,14 -0057-0017-046-7,5,ANKAN INC, ,2121 SUGAR VALLEY LN,LAWRENCEVILLE GA 30043, , ,348,C901,C3,C,1090400,436160,287320,148840, ,0.62,0,1962, ,2010,6,0, ,46,20101028,14 00570017046,1.40E+12,1683 LAKEWOOD AVE SE, ,0, 14 00570017046,0,7046, ,14 005700170467,CONVENIENCE FOOD MARKET 348,Y,Lakewood Heights,1.40E+12,C,photos\54\86676\img_rpt-brendaellison92_at_yahoo_dot_com-2012-1-26-10-53-16_1.jpg,Fair,Fair,No,Not Visible
29728,29404,2010,1660 JONESBORO RD SE,14 00570027001,14 005700270010,14 -0057-0027-001-0,5,TUCKER & SONS INC, ,1660 JONESBORO RD SE,ATLANTA GA 30315, , ,347,C901,C3,C,418900,167560,125440,42120, ,0.3,0,1955, ,2010,6,0, ,1,20101028,14 00570027001,1.40E+12,1660 JONESBORO RD SE, ,0, 14 00570027001,0,7001, ,14 005700270010,SUPERMARKET 347,Y,Lakewood Heights,1.40E+12,C,photos\53\91126\img_rpt-hillglenda_at_ymail_dot_com-2012-1-27-10-18-32_1.jpg,Fair,Fair,Yes,N
29739,29415,2010,1686 JONESBORO RD SE,14 00570027014,14 005700270143,14 -0057-0027-014-3,5,BANKS ROY M  ET AL, ,8180 SULLIVAN HILL RD,ATLANTA GA 30350 3134, , ,333,C901,C3,C,183400,73360,28680,44680, ,0.34,0,1955, ,2010,6,0, ,14,20101028,14 00570027014,1.40E+12,1686 JONESBORO RD SE, ,0, 14 00570027014,0,7014, ,14 005700270143,SERVICE STATION WITH BAYS 333,Y,Lakewood Heights,1.40E+12,C,photos\53\91109\img_rpt-hillglenda_at_ymail_dot_com-2012-1-27-10-20-27_1.jpg,Fair,No Structure,Yes,N
29767,29195,2010,1629 LAKEWOOD AVE SE,14 00570017048,14 005700170483,14 -0057-0017-048-3,5,SE II LLC, ,P O BOX 70,DOUGLASVILLE GA 30133, , ,348,C901,C3,C,200500,80200,25880,54320, ,0.5,0,1965, ,2010,6,0, ,48,20101028,14 00570017048,1.40E+12,1629 LAKEWOOD AVE SE, ,0, 14 00570017048,0,7048, ,14 005700170483,CONVENIENCE FOOD MARKET 348,Y,Lakewood Heights,1.40E+12,C,photos\54\86621\img_rpt-brendaellison92_at_yahoo_dot_com-2012-1-26-10-45-44_1.jpg,Good,Good,Yes,N
30170,29515,2010,1811 LAKEWOOD AVE SE,14 00580002091,14 005800020919,14 -0058-0002-091-9,5,SIMMONS TERRELL, ,2291 BAYWOOD DR SE,ATLANTA GA 30315, , ,334,C904,C3,C,144600,57840,18560,39280, ,0.25,0,1961, ,2010,6,0, ,91,20101028,14 00580002091,1.40E+12,1811 LAKEWOOD AVE SE, ,0, 14 00580002091,0,2091, ,14 005800020919,SERVICE STATION W/O BAYS 334,Y,Lakewood Heights,1.40E+12,C,photos\54\86560\img_rpt-brendaellison92_at_yahoo_dot_com-2012-1-26-11-8-51_1.jpg,Poor,Poor,Yes,Y
30497,31163,2010,BROWN MILL RD,14 0065  LL106,14 0065  LL1069,14 -0065-  LL-106-9,5,SHAAZ PROPERTIES LLC, ,689 BOULVARD NE,ATLANTA GA 30308, , ,348,C907,C3,C,434000,173600,29640,143960, ,0.6,0,1992, ,2010,U,0, ,106,20101028,14 0065  LL106,140065LL106,BROWN MILL RD, ,0, 14 0065  LL106,0,L106, ,14 0065  LL1069,CONVENIENCE FOOD MARKET 348,Z,Glenrose Heights,140065LL106,C,0, , , , 
30593,31187,2010,3556 EMPIRE BLVD SW,14 0066  LL111,14 0066  LL1118,14 -0066-  LL-111-8,5,"D & K UNLIMITED, INC.", ,3556 EMPIRE BLVD SW,ATLANTA GA 30354, , ,348,C907,C3,C,1029700,411880,237880,174000, ,0.73,0,1993, ,2010,6,0, ,111,20101028,14 0066  LL111,140066LL111,3556 EMPIRE BLVD SW, ,0, 14 0066  LL111,0,L111, ,14 0066  LL1118,CONVENIENCE FOOD MARKET 348,Z,Glenrose Heights,140066LL111,C,0, , , , 
31696,31875,2010,151 CLEVELAND AVE SW,14 00690005047,14 006900050475,14 -0069-0005-047-5,05R,CLEVELAND AMOKOI LLC, ,3970 ROGERS BRIDGE RD,DULUTH GA 30097, , ,348,C906,C3,C,450000,180000,45080,134920, ,0.56,0,1997, ,2010,6,0, ,47,20101028,14 00690005047,1.40E+12,151 CLEVELAND AVE SW, ,0, 14 00690005047,0,5047, ,14 006900050475,CONVENIENCE FOOD MARKET 348,Z,Browns Mill Park,1.40E+12,C,0, , , , 
31697,31876,2010,221 CLEVELAND AVE SW,14 00690005049,14 006900050491,14 -0069-0005-049-1,05R,CLEVELAND ENTERPRISES INC, ,630 WHITLOCK AVE,MARIETTA GA 30064, , ,348,C906,C3,C,1039300,415720,300440,115280, ,0.48,0,1984, ,2010,6,0, ,49,20101028,14 00690005049,1.40E+12,221 CLEVELAND AVE SW, ,0, 14 00690005049,0,5049, ,14 006900050491,CONVENIENCE FOOD MARKET 348,Z,Browns Mill Park,1.40E+12,C,0, , , , 
32233,32430,2010,1695 PRYOR RD SW,14 0072  LL013,14 0072  LL0138,14 -0072-  LL-013-8,5,KIM JONG S, ,631 BELGRAVE LN,ATTN. BEN DAMON,TUCKER GA 30084, ,348,C901,C3,C,113300,45320,8680,36640, ,0.2,0,1960, ,2010,6,0, ,13,20101028,14 0072  LL013,140072LL013,1695 PRYOR RD SW, ,0, 14 0072  LL013,0,L013, ,14 0072  LL0138,CONVENIENCE FOOD MARKET 348,Y,Betmar LaVilla,140072LL013,C,0, , , , 
33320,33058,2010,180 UNIVERSITY AVE SW,14 00730002045,14 007300020456,14 -0073-0002-045-6,5,GEORGIA ALABAMA COMMERCIAL INVESTMENTS, ,2875 UNIVERSITY PKWY,LAWRENCEVILLE GA 30043, , ,348,C901,C3,C,728900,291560,97200,194360, ,0.81,0,1985, ,2010,6,0, ,45,20101028,14 00730002045,1.40E+12,180 UNIVERSITY AVE SW, ,0, 14 00730002045,0,2045, ,14 007300020456,CONVENIENCE FOOD MARKET 348,V,Pittsburgh,1.40E+12,C,0,Poor,Deteriorated,Yes,Y
33859,34916,2010,DECATUR ST SE,14 00770004088,14 007700040880,14 -0077-0004-088-0,05F,H T REAL ESTATE L L C, ,3355 LENOX RD NE STE 425,ATLANTA GA 30326 1352, , ,323,CB00,C3,C,161600,64640,9360,55280, ,0,0,1970, ,2010,8,0, ,88,20101028,14 00770004088,1.40E+12,DECATUR ST SE, ,0, 14 00770004088,0,4088, ,14 007700040880,FOOD STANDS 323,M,Downtown,1.40E+12,C,photos\131\182717\img_rpt-kelvin_at_tapinspect_dot_com-2012-5-28-20-12-18_1.jpg,Not Visible,Not Visible,Yes,Not Visible
33958,34944,2010,116 SPRING ST SW,14 00770005044,14 007700050442,14 -0077-0005-044-2,05Z,PATTERSON PROPERTIES LLC, ,911 BAYRIDGE DR,JACKSON MS 39211, , ,323,CB06,C3,C,332800,133120,7040,126080, ,0,0,1980, ,2010,6,0, ,44,20101028,14 00770005044,1.40E+12,116 SPRING ST SW, ,0, 14 00770005044,0,5044, ,14 007700050442,FOOD STANDS 323,M,Downtown,1.40E+12,C,0, , , , 
34494,33817,2010,664 PRYOR ST SW,14 00750002078,14 007500020785,14 -0075-0002-078-5,05P,CARLOS CHRIS, ,1 NATIONAL DR SW,ATLANTA GA 30336, , ,333,C604,C3,C,117700,47080,17360,29720, ,0.28,0,1960, ,2010,6,0, ,78,20101028,14 00750002078,1.40E+12,664 PRYOR ST SW, ,0, 14 00750002078,0,2078, ,14 007500020785,SERVICE STATION WITH BAYS 333,V,Mechanicsville,1.40E+12,C,0, , , , 
34495,33818,2010,180 RALPH D ABERNATHY BLVD SW,14 00750002079,14 007500020793,14 -0075-0002-079-3,05P,CONVEXCO VENTURES INC, ,180 RALPH DAVID ABERNATHY BLVD SW,ATLANTA GA 30312 2748, , ,348,C604,C3,C,366900,146760,74880,71880, ,0.37,0,1987, ,2010,6,0, ,79,20101028,14 00750002079,1.40E+12,180 RALPH D ABERNATHY BLVD SW, ,0, 14 00750002079,0,2079, ,14 007500020793,CONVENIENCE FOOD MARKET 348,V,Mechanicsville,1.40E+12,C,photos\124\184759\img_rpt-allensr_at_tapinspect_dot_com-2012-6-1-10-1-25_1.jpg,Fair,Fair,Yes,N
34979,33726,2010,288 RALPH D ABERNATHY BLVD SW,14 00750001153,14 007500011537,14 -0075-0001-153-7,05P,HUFF NORMAN, ,288 RALPH D ABERNATHY,ATLANTA GA 30310, , ,348,C604,C3,C,254700,101880,31000,70880, ,0.36,0,1970, ,2010,6,0, ,153,20101028,14 00750001153,1.40E+12,288 RALPH D ABERNATHY BLVD SW, ,0, 14 00750001153,0,1153, ,14 007500011537,CONVENIENCE FOOD MARKET 348,V,Mechanicsville,1.40E+12,C,photos\124\184746\img_rpt-allensr_at_tapinspect_dot_com-2012-6-1-9-33-23_1.jpg,Fair,Poor,Yes,N
35412,36410,2010,388 LUCKIE ST NW,14 00790009011,14 007900090115,14 -0079-0009-011-5,05Y,KU SANG HUN, ,388 LUCKIE ST,ATLANTA GA 30313, , ,348,CB00,C3,C,892400,356960,101160,255800, ,0,0,1979, ,2010,6,0, ,11,20101028,14 00790009011,1.40E+12,388 LUCKIE ST NW, ,0, 14 00790009011,0,9011, ,14 007900090115,CONVENIENCE FOOD MARKET 348,M,Downtown,1.40E+12,C,photos\48\109348\img_rpt-carlene_dot_cush_at_gmail_dot_com-2012-2-2-11-59-26_1.jpg,Good,Fair,Yes,Not Visible
35997,36363,2010,600 SPRING ST NW,14 00790003066,14 007900030665,14 -0079-0003-066-5,05F,SPRING STREET ONE SIX NINE TWO ONE LLC, ,10745 WESTSIDE WAY STE 225,ALPHARETTA GA 30009, , ,348,CB07,C3,C,4096600,1638640,236640,1402000, ,0,0,1998, ,2010,6,0, ,66,20101028,14 00790003066,1.40E+12,600 SPRING ST NW, ,0, 14 00790003066,0,3066, ,14 007900030665,CONVENIENCE FOOD MARKET 348,M,Downtown,1.40E+12,C,photos\48\16029\img_rpt-carlene_dot_cush_at_gmail_dot_com-2011-12-22-9-21-42_1.jpg,Good,Good,Yes,Not Visible
38728,39485,2010,490 WHITEHALL ST SW,14 00850005087,14 008500050871,14 -0085-0005-087-1,5,SSN ALEXIS INC, ,490 WHITEHALL ST,D/B/A CHEVRON FOOD MA,ATLANTA GA 30303, ,348,CB06,C3,C,870300,348120,207160,140960, ,0,0,2000, ,2010,6,0, ,87,20101028,14 00850005087,1.40E+12,490 WHITEHALL ST SW, ,0, 14 00850005087,0,5087, ,14 008500050871,CONVENIENCE FOOD MARKET 348,M,Castleberry Hill,1.40E+12,C,photos\130\152478\img_rpt-tabatha_at_tapinspect_dot_com-2012-4-13-10-54-46_1.jpg,Good,Good,Yes,N
38922,39325,2010,334 MC DANIEL ST SW,14 00850001072,14 008500010727,14 -0085-0001-072-7,5,PARKER HUBBARD B, ,147 FAIRFIELD PL NW,ATLANTA GA 30314, , ,323,CB06,C3,C,105400,42160,5480,36680, ,0,0,0, ,2010,6,0, ,72,20101028,14 00850001072,1.40E+12,334 MC DANIEL ST SW, ,0, 14 00850001072,0,1072, ,14 008500010727,FOOD STANDS 323,M,Castleberry Hill,1.40E+12,C,photos\123\152617\img_rpt-shandra_at_tapinspect_dot_com-2012-4-13-13-34-24_1.jpg,Good,Good,Yes,N
38925,39328,2010,294 NORTHSIDE DR SW,14 00850001077,14 008500010776,14 -0085-0001-077-6,5,BARANOVITZ JACK &, ,2210 CHRYSLER TER NE,ATLANTA GA 30345, , ,326,CB06,C3,C,756700,302680,240720,61960, ,0,0,1999, ,2010,6,0, ,77,20101028,14 00850001077,1.40E+12,294 NORTHSIDE DR SW, ,0, 14 00850001077,0,1077, ,14 008500010776,CONVENIENCE / FAST FOOD MARKET 326*,M,Castleberry Hill,1.40E+12,C,photos\130\151960\img_rpt-tabatha_at_tapinspect_dot_com-2012-4-12-14-1-49_1.jpg,Good,Good,Yes,N
39149,39586,2010,610 METROPOLITAN PKWY SW,14 00850011028,14 008500110287,14 -0085-0011-028-7,5,LEE FREDDIE DELYNN, ,553 CREEK STONE DR,JONESBORO GA 30236, , ,333,C604,C3,C,269000,107600,27240,80360, ,0.41,0,1970, ,2010,6,0, ,28,20101028,14 00850011028,1.40E+12,610 METROPOLITAN PKWY SW, ,0, 14 00850011028,0,1028, ,14 008500110287,SERVICE STATION WITH BAYS 333,V,Pittsburgh,1.40E+12,C,0,Poor,Deteriorated,Yes,Y
40103,40907,2010,337 FLETCHER ST SW,14 00870006131,14 008700061314,14 -0087-0006-131-4,5,EZIMORA MAX O & CHIOMA E, ,337 FLETCHER ST SW,ATLANTA GA 30310, , ,348,C604,C3,C,61700,24680,7360,17320, ,0.07,0,0, ,2010,6,0, ,131,20101028,14 00870006131,1.40E+12,337 FLETCHER ST SW, ,0, 14 00870006131,0,6131, ,14 008700061314,CONVENIENCE FOOD MARKET 348,V,Pittsburgh,1.40E+12,C,photos\123\173664\img_rpt-shandra_at_tapinspect_dot_com-2012-5-11-14-49-52_1.jpg,Good,Good,Yes,N
40584,40804,2010,1003 MC DANIEL ST SW,14 00870005129,14 008700051299,14 -0087-0005-129-9,5,BARKA CORPORATION, ,1003 MC DANIEL ST,ATLANTA GA 30310, , ,347,C604,C3,C,340400,136160,99120,37040, ,0,0,1962, ,2010,6,0, ,129,20101028,14 00870005129,1.40E+12,1003 MC DANIEL ST SW, ,0, 14 00870005129,0,5129, ,14 008700051299,SUPERMARKET 347,V,Pittsburgh,1.40E+12,C,photos\130\152467\img_rpt-tabatha_at_tapinspect_dot_com-2012-4-13-12-16-59_1.jpg,Good,Good,Yes,N
41630,41306,2010,332 FLETCHER ST SW,14 00870009068,14 008700090685,14 -0087-0009-068-5,5,ARIA PROPERTIES LLC, ,P O BOX 9261,MARIETTA GA 30065, , ,348,C604,C3,C,80700,32280,12040,20240, ,0.11,0,0, ,2010,6,0, ,68,20101028,14 00870009068,1.40E+12,332 FLETCHER ST SW, ,0, 14 00870009068,0,9068, ,14 008700090685,CONVENIENCE FOOD MARKET 348,V,Pittsburgh,1.40E+12,C,photos\130\173318\img_rpt-tabatha_at_tapinspect_dot_com-2012-5-11-14-48-21_1.jpg,Fair,Good,Yes,Y
41845,42815,2010,2866 METROPOLITAN PKWY SW,14 00930003203,14 009300032036,14 -0093-0003-203-6,05R,GHAZIPURA MOHAMMED ZAHID, ,3223 ARBOR RIDGE DR,ATLANTA GA 30340, , ,333,C906,C3,C,67300,26920,12480,14440, ,0.14,0,1970, ,2010,N,0, ,203,20101028,14 00930003203,1.40E+12,2866 METROPOLITAN PKWY SW, ,0, 14 00930003203,0,3203, ,14 009300032036,SERVICE STATION WITH BAYS 333,X,Hammond Park,1.40E+12,C,0, , , , 
42061,43071,2010,655 CLEVELAND AVE SW,14 0101  LL038,14 0101  LL0380,14 -0101-  LL-038-0,05R,MAYUARI CORPORATION, ,655 CLEVELAND AVE,ATLANTA GA 30315, , ,334,C906,C3,C,451300,180520,45040,135480, ,0,0,1979, ,2010,6,0, ,38,20101028,14 0101  LL038,140101LL038,655 CLEVELAND AVE SW, ,0, 14 0101  LL038,0,L038, ,14 0101  LL0380,SERVICE STATION W/O BAYS 334,X,Perkerson,140101LL038,C,0, , , , 
42132,42686,2010,374 CLEVELAND AVE SW,14 00930002141,14 009300021419,14 -0093-0002-141-9,05R,ISK PROPERTIES LLC, ,2754 N DECATUR RD SUITE 118,DECATUR GA 30033, , ,348,C906,C3,C,477100,190840,80680,110160, ,0.74,0,1968, ,2010,6,0, ,141,20101028,14 00930002141,1.40E+12,374 CLEVELAND AVE SW, ,0, 14 00930002141,0,2141, ,14 009300021419,CONVENIENCE FOOD MARKET 348,X,Hammond Park,1.40E+12,C,0, , , , 
42219,43113,2010,CLEVELAND AVE SW,14 01010004027,14 010100040278,14 -0101-0004-027-8,05R,CLEVELAND & EIGHTY FIVE CENTER, ,P. O. BOX 1565,LAWRENCEVILLE GA 30046, , ,348,C908,C3,C,1594500,637800,262400,375400, ,0,0,2001, ,2010,6,0, ,27,20101028,14 01010004027,1.40E+12,CLEVELAND AVE SW, ,0, 14 01010004027,0,4027, ,14 010100040278,CONVENIENCE FOOD MARKET 348,X,Perkerson,1.40E+12,C,0, , , , 
42389,43353,2010,2836 LAKEWOOD AVE SW,14 01020002064,14 010200020642,14 -0102-0002-064-2,05R,MILLER MARY JACKSON, ,160 S. KITE LAKE RD,FAYETTEVILLE GA 30214, , ,333,C908,C3,C,739400,295760,174160,121600, ,0.51,0,1965, ,2010,6,0, ,64,20101028,14 01020002064,1.40E+12,2836 LAKEWOOD AVE SW, ,0, 14 01020002064,0,2064, ,14 010200020642,SERVICE STATION WITH BAYS 333,X,Sylvan Hills,1.40E+12,C,0, , , , 
42693,42011,2010,1850 METROPOLITAN PKWY SW,14 00900001111,14 009000011116,14 -0090-0001-111-6,05R,SARANJEET KAUR CHHABRA &, ,1850 METROPOLITAN PKWY,ATLANTA GA 30315, , ,348,C605,C3,C,432400,172960,75240,97720, ,0.65,0,1970, ,2010,6,0, ,111,20101028,14 00900001111,1.40E+12,1850 METROPOLITAN PKWY SW, ,0, 14 00900001111,0,1111, ,14 009000011116,CONVENIENCE FOOD MARKET 348,X,Sylvan Hills,1.40E+12,C,0, , , , 
43347,42588,2010,2755 METROPOLITAN PKWY,14 00930001131,14 009300011311,14 -0093-0001-131-1,05R,GRIFFIN LAUREN B & ODEN HAROLD, ,1244 BRANCHFIELD CT,RIVERDALE GA 30274 2148, , ,348,C906,C3,C,90800,36320,21440,14880, ,0.15,0,1947, ,2010,J,0, ,131,20101028,14 00930001131,1.40E+12,2755 METROPOLITAN PKWY, ,0, 14 00930001131,0,1131, ,14 009300011311,CONVENIENCE FOOD MARKET 348,X,Hammond Park,1.40E+12,C,0, , , , 
44059,45030,2010,1341 METROPOLITAN PKWY SW,14 01050009122,14 010500091228,14 -0105-0009-122-8,5,DONGOR CORP, ,P O BOX 6657,ATLANTA GA 30315, , ,333,C605,C3,C,258600,103440,43920,59520, ,0.3,0,1969, ,2010,6,0, ,122,20101028,14 01050009122,1.40E+12,1341 METROPOLITAN PKWY SW, ,0, 14 01050009122,0,9122, ,14 010500091228,SERVICE STATION WITH BAYS 333,X,Capitol View,1.40E+12,C,photos\124\185803\img_rpt-allensr_at_tapinspect_dot_com-2012-6-5-11-11-56_1.jpg,Fair,Fair,Yes,N
44299,44661,2010,1241 METROPOLITAN PKWY SW,14 01050004006,14 010500040068,14 -0105-0004-006-8,5,AMINA HASSANALI REVOCABLE, ,2350 BRIARCLIFF COMMONS,ATLANTA GA 30345, , ,348,C605,C3,C,450000,180000,31600,148400, ,1.21,0,1965, ,2010,J,0, ,6,20101028,14 01050004006,1.40E+12,1241 METROPOLITAN PKWY SW, ,0, 14 01050004006,0,4006, ,14 010500040068,CONVENIENCE FOOD MARKET 348,V,Adair Park,1.40E+12,C,photos\124\185863\img_rpt-allensr_at_tapinspect_dot_com-2012-6-5-8-35-30_1.jpg,Poor,Fair,Yes,N
44391,43852,2010,2050 SYLVAN RD SW,14 01030002054,14 010300020542,14 -0103-0002-054-2,5,STRONG ENTERPRISES INC, ,2046 STANTON RD,EAST POINT GA 30344, , ,348,C605,C3,C,275000,110000,50400,59600, ,0.6,0,1968, ,2010,6,0, ,54,20101028,14 01030002054,1.40E+12,2050 SYLVAN RD SW, ,0, 14 01030002054,0,2054, ,14 010300020542,CONVENIENCE FOOD MARKET 348,X,Sylvan Hills,1.40E+12,C,photos\74\108274\img_rpt-duggermike53_at_yahoo_dot_com-2012-1-29-12-12-27_1.jpg,Good,Good,Yes,N
44393,43854,2010,1974 SYLVAN RD SW,14 01030002056,14 010300020567,14 -0103-0002-056-7,5,KOMEL INC, ,1960 PERKERSON RD,ATLANTA GA 30310, , ,348,C605,C3,C,1250000,500000,383480,116520, ,0.49,0,1984, ,2010,6,0, ,56,20101028,14 01030002056,1.40E+12,1974 SYLVAN RD SW, ,0, 14 01030002056,0,2056, ,14 010300020567,CONVENIENCE FOOD MARKET 348,X,Sylvan Hills,1.40E+12,C,photos\74\108290\img_rpt-duggermike53_at_yahoo_dot_com-2012-1-29-12-6-26_1.jpg,Good,Good,Yes,N
44436,43667,2010,1960 PERKERSON RD SW,14 0103  LL015,14 0103  LL0156,14 -0103-  LL-015-6,5,MIRAGE ENTERPRISES INC, ,589 GORDON COMBS RD,APT 714,MARIETTA GA 30064, ,333,C605,C3,C,256500,102600,26200,76400, ,0.52,0,1969, ,2010,6,0, ,15,20101028,14 0103  LL015,140103LL015,1960 PERKERSON RD SW, ,0, 14 0103  LL015,0,L015, ,14 0103  LL0156,SERVICE STATION WITH BAYS 333,X,Sylvan Hills,140103LL015,C,0, , , , 
44529,43684,2010,2095 METROPOLITAN PKWY SW,14 0103  LL050,14 0103  LL0503,14 -0103-  LL-050-3,05R,AMOCO OIL CO, ,5317 T L BOWER WAY,FLOWERY BRANCH GA 30542 2898, , ,348,C605,C3,C,526900,210760,89240,121520, ,0.62,0,1987, ,2010,P,0, ,50,20101028,14 0103  LL050,140103LL050,2095 METROPOLITAN PKWY SW, ,0, 14 0103  LL050,0,L050, ,14 0103  LL0503,CONVENIENCE FOOD MARKET 348,X,Sylvan Hills,140103LL050,C,0, , , , 
45215,46831,2010,180 ELM ST SW,14 01090005075,14 010900050758,14 -0109-0005-075-8,5,ONE EIGHTY ELM STREET LLC, ,230 JOHN WESLEY DOBBS,ATLANTA GA 30303, , ,348,C407,C3,C,124500,49800,35800,14000, ,0,0,1963, ,2010,6,0, ,75,20101028,14 01090005075,1.40E+12,180 ELM ST SW, ,0, 14 01090005075,0,5075, ,14 010900050758,CONVENIENCE FOOD MARKET 348,T,Atlanta University Center,1.40E+12,C,0, , , , 
45446,46480,2010,516 LEE ST SW,14 01080007085,14 010800070856,14 -0108-0007-085-6,5,SW KIM INC, ,516 LEE ST,ATLANTA GA 30310, , ,347,C603,C3,C,430000,172000,77000,95000, ,0.32,0,1961, ,2010,6,0, ,85,20101028,14 01080007085,1.40E+12,516 LEE ST SW, ,0, 14 01080007085,0,7085, ,14 010800070856,SUPERMARKET 347,T,West End,1.40E+12,C,0, , , , 
45964,46195,2010,535 LEE ST SW,14 0108  LL010,14 0108  LL0102,14 -0108-  LL-010-2,5,REED AMERICUS & GLORIA, ,535 LEE ST SW,ATLANTA GA 30312, , ,348,C603,C3,C,441700,176680,94040,82640, ,0.35,0,1990, ,2010,6,0, ,10,20101028,14 0108  LL010,140108LL010,535 LEE ST SW, ,0, 14 0108  LL010,0,L010, ,14 0108  LL0102,CONVENIENCE FOOD MARKET 348,T,West End,140108LL010,C,photos\69\135321\img_rpt-danielhis_at_msn_dot_com-2012-3-9-10-32-49_1.jpg,Good,Good,Yes,N
46033,45779,2010,1163 METROPOLITAN PKWY SW,14 01060014020,14 010600140206,14 -0106-0014-020-6,5,JUPITER DEVELOPMENT INC, ,1163 METROPOLITAN PKWY SW,ATLANTA GA 30310 3500, , ,348,C604,C3,C,418900,167560,85200,82360, ,0.42,0,2003, ,2010,6,0, ,20,20101028,14 01060014020,1.40E+12,1163 METROPOLITAN PKWY SW, ,0, 14 01060014020,0,4020, ,14 010600140206,CONVENIENCE FOOD MARKET 348,V,Adair Park,1.40E+12,C,photos\124\185499\img_rpt-allensr_at_tapinspect_dot_com-2012-6-4-9-32-6_1.jpg,Poor,No Structure,Yes,N
46752,45305,2010,923 LEE ST SW,14 01060001028,14 010600010284,14 -0106-0001-028-4,5,C & F WRECKER SERVICE INC, ,1465 WESTWOOD AVE SW,ATLANTA GA 30310, , ,348,C603,C3,C,788300,315320,130440,184880, ,0.79,0,1985, ,2010,6,0, ,28,20101028,14 01060001028,1.40E+12,923 LEE ST SW, ,0, 14 01060001028,0,1028, ,14 010600010284,CONVENIENCE FOOD MARKET 348,T,West End,1.40E+12,C,0, , , , 
48192,47371,2010,825 M L KING JR DR NW,14 01100008095,14 011000080950,14 -0110-0008-095-0,05Z,ATLANTA WESTSIDE VILLAGE RETAIL PARTNERS, ,170 NORTHSIDE DR SW STE 514,ATLANTA GA 30313, , ,347,C407,C4,C,6726600,2690640,1353000,1337640, ,0,0,2002, ,2010,N,0, ,95,20101028,14 01100008095,1.40E+12,825 M L KING JR DR NW, ,0, 14 01100008095,0,8095, ,14 011000080950,SUPERMARKET 347,L,Vine City,1.40E+12,C,photos\124\155586\img_rpt-allensr_at_tapinspect_dot_com-2012-4-17-10-27-27_1.jpg,Good,Good,Yes,N
48445,47006,2010,766 JOSEPH E BOONE BLVD,14 01100002150,14 011000021509,14 -0110-0002-150-9,05Z,MEMARZADEH ASGHAR, ,481 IVY PARK LANE NE,ATLANTA GA 30342, , ,348,C407,C3,C,121300,48520,19920,28600, ,0,0,0, ,2010,6,0, ,150,20101028,14 01100002150,1.40E+12,766 JOSEPH E BOONE BLVD, ,0, 14 01100002150,0,2150, ,14 011000021509,CONVENIENCE FOOD MARKET 348,L,Vine City,1.40E+12,C,photos\123\151648\img_rpt-shandra_at_tapinspect_dot_com-2012-4-12-12-47-27_1.jpg,Fair,Fair,Yes,N
48602,50228,2010,949 MAYSON TURNER RD NW,14 01150007024,14 011500070246,14 -0115-0007-024-6,5,AMOCO OIL CO, ,P.O. BOX 1548,WARRENVILLE IL 60555, , ,348,C408,C3,C,262100,104840,64920,39920, ,0,0,1986, ,2010,6,0, ,24,20101028,14 01150007024,1.40E+12,949 MAYSON TURNER RD NW, ,0, 14 01150007024,0,7024, ,14 011500070246,CONVENIENCE FOOD MARKET 348,K,Washington Park,1.40E+12,C,photos\123\179649\img_rpt-shandra_at_tapinspect_dot_com-2012-5-24-13-44-43_1.jpg,Good,Good,Yes,N
49315,49802,2010,336 JOSEPH E LOWERY BLVD NW,14 01140007181,14 011400071815,14 -0114-0007-181-5,5,SBH L L C, ,785 MC KENZIE CT,ATLANTA GA 30331, , ,333,C408,C3,C,407500,163000,36280,126720, ,0,0,1971, ,2010,6,0, ,181,20101028,14 01140007181,1.40E+12,336 JOSEPH E LOWERY BLVD NW, ,0, 14 01140007181,0,7181, ,14 011400071815,SERVICE STATION WITH BAYS 333,K,Bankhead,1.40E+12,C,photos\37\156219\img_rpt-jballensr_at_gmail_dot_com-2012-4-4-8-15-21_1.jpg,Good,Good,Yes,N
49518,49014,2010,902 DONALD LEE HOLLOWELL PKWY NW,14 01120007082,14 011200070827,14 -0112-0007-082-7,05Z,WADE ORR CENTER LLC, ,P O BOX 1565,LAWRENCEVILLE GA 30046, , ,348,C407,C3,C,1048800,419520,136640,282880, ,0,0,1983, ,2010,6,0, ,82,20101028,14 01120007082,1.40E+12,902 DONALD LEE HOLLOWELL PKWY NW, ,0, 14 01120007082,0,7082, ,14 011200070827,CONVENIENCE FOOD MARKET 348,L,English Avenue,1.40E+12,C,photos\27\144031\img_rpt-rrdw777_at_gmail_dot_com-2012-3-29-9-36-17_1.jpg,Fair,Fair,Yes,N
49563,49021,2010,808 DONALD LEE HOLLOWELL PKWY NW,14 01120007091,14 011200070918,14 -0112-0007-091-8,05Z,TOPLE CONSTRUCTION &, ,792 DONALD LEE HOWELL PKWY NW,ATLANTA GA 30318, , ,333,C407,C3,C,457400,182960,25200,157760, ,0,0,1950, ,2010,6,0, ,91,20101028,14 01120007091,1.40E+12,808 DONALD LEE HOLLOWELL PKWY NW, ,0, 14 01120007091,0,7091, ,14 011200070918,SERVICE STATION WITH BAYS 333,L,English Avenue,1.40E+12,C,photos\27\144597\img_rpt-rrdw777_at_gmail_dot_com-2012-3-29-10-29-58_1.jpg,Poor,Poor,Yes,N
49629,49234,2010,1060 JEFFERSON ST NW,14 01130003080,14 011300030804,14 -0113-0003-080-4,5,ONE ZERO SIX ZERO JEFFERSON STREET LLC, ,1060 JEFFERSON ST,ATLANTA GA 30318, , ,333,C408,I3,I,357000,142800,0,142800, ,1.1,0,1962, ,2010,6,0, ,80,20101028,14 01130003080,1.40E+12,1060 JEFFERSON ST NW, ,0, 14 01130003080,0,3080, ,14 011300030804,SERVICE STATION WITH BAYS 333,K,Bankhead,1.40E+12,C,photos\44\114334\img_rpt-octaveceo_at_yahoo_dot_com-2012-2-15-11-21-31_1.jpg,Good,Good,Yes,N
49635,49249,2010,995 DONALD LEE HOLLOWELL PKWY NW,14 01130004053,14 011300040530,14 -0113-0004-053-0,5,"I & D SISTER, LLC", ,5161 STONE MOUNTAIN HWY,STONE MOUNTAIN GA 30087, , ,348,C408,C3,C,267500,107000,23760,83240, ,0,0,1955, ,2010,6,0, ,53,20101028,14 01130004053,1.40E+12,995 DONALD LEE HOLLOWELL PKWY NW, ,0, 14 01130004053,0,4053, ,14 011300040530,CONVENIENCE FOOD MARKET 348,K,Bankhead,1.40E+12,C,0, , , , 
49654,48826,2010,900 NORTHSIDE DR NW,14 01120003059,14 011200030599,14 -0112-0003-059-9,5,COLEMAN LOUISE LANIER, ,2520 SOUTH BRYAN CIR,EAST POINT GA 30344, , ,333,CB06,C3,C,705300,282120,63840,218280, ,0,0,1956, ,2010,6,0, ,59,20101028,14 01120003059,1.40E+12,900 NORTHSIDE DR NW, ,0, 14 01120003059,0,3059, ,14 011200030599,SERVICE STATION WITH BAYS 333,E,Marietta Street Artery,1.40E+12,C,0, , , , 
50058,49347,2010,948 DONALD LEE HOLLOWELL PKWY NW,14 01130006115,14 011300061155,14 -0113-0006-115-5,5,ABEBE MEKONNEN, ,948 BANKHEAD HWY,ATLANTA GA 30318, , ,348,C408,C3,C,607900,243160,108080,135080, ,0,0,1952, ,2010,6,0, ,115,20101028,14 01130006115,1.40E+12,948 DONALD LEE HOLLOWELL PKWY NW, ,0, 14 01130006115,0,6115, ,14 011300061155,CONVENIENCE FOOD MARKET 348,K,Bankhead,1.40E+12,C,0, , , , 
50742,51440,2010,343 JOSEPH E LOWERY BLVD SW,14 01170003056,14 011700030560,14 -0117-0003-056-0,5,WILLINGHAM ROOSEVELT & CALVIN, ,2070 ROGERS AVE SW,ATLANTA GA 30310, , ,348,C408,C3,C,480500,192200,80480,111720, ,0,0,2002, ,2010,6,0, ,56,20101028,14 01170003056,1.40E+12,343 JOSEPH E LOWERY BLVD SW, ,0, 14 01170003056,0,3056, ,14 011700030560,CONVENIENCE FOOD MARKET 348,T,Harris Chiles,1.40E+12,C,photos\130\155472\img_rpt-tabatha_at_tapinspect_dot_com-2012-4-17-10-23-23_2.jpg,Good,Good,Yes,N
50769,51860,2010,1098 RALPH D ABERNATHY BLVD SW,14 01180001115,14 011800011155,14 -0118-0001-115-5,5,M M K INC A, ,115 ARBOR GATE,PEACHTREE CITY GA 30269, , ,348,C603,C3,C,384300,153720,5200,148520, ,0.5,0,1958, ,2010,6,0, ,115,20101028,14 01180001115,1.40E+12,1098 RALPH D ABERNATHY BLVD SW, ,0, 14 01180001115,0,1115, ,14 011800011155,CONVENIENCE FOOD MARKET 348,T,West End,1.40E+12,C,photos\124\183502\img_rpt-allensr_at_tapinspect_dot_com-2012-5-30-9-38-4_1.jpg,Poor,No Structure,Yes,N
50956,51698,2010,507 JOSEPH E LOWERY BLVD,14 01170008130,14 011700081308,14 -0117-0008-130-8,5,EXCELL INTOWN PROP LLC, ,P O BOX 1565,TAX SECTION,LAWRENCEVILLE GA 30046, ,348,C603,C3,C,839900,335960,84000,251960, ,0.86,0,1982, ,2010,6,0, ,130,20101028,14 01170008130,1.40E+12,507 JOSEPH E LOWERY BLVD, ,0, 14 01170008130,0,8130, ,14 011700081308,CONVENIENCE FOOD MARKET 348,T,West End,1.40E+12,C,photos\130\153729\img_rpt-tabatha_at_tapinspect_dot_com-2012-4-16-10-28-27_2.jpg,Good,Good,Yes,N
51080,51936,2010,683 ASHBY ST SW,14 01180003036,14 011800030361,14 -0118-0003-036-1,5,KIM BAIK KYU & JEAN SOOK, ,683 JOSEPH E LOWERY BLVD # SW,ATLANTA GA 30310, , ,347,C603,C3,C,645400,258160,151560,106600, ,1.08,0,1980, ,2010,6,0, ,36,20101028,14 01180003036,1.40E+12,683 ASHBY ST SW, ,0, 14 01180003036,0,3036, ,14 011800030361,SUPERMARKET 347,T,West End,1.40E+12,C,photos\86\32105\img_rpt-taylortabatha_at_bellsouth_dot_net-2012-1-2-13-58-9_1.jpg,Good,Good,Yes,N
51316,50722,2010,3 ASHBY ST SW,14 01160003081,14 011600030819,14 -0116-0003-081-9,5,REED AMERICUS & GLORIA J, ,P.O. BOX 2668,DULUTH GA 30096, , ,348,C408,C3,C,494200,197680,81080,116600, ,0,0,1983, ,2010,6,0, ,81,20101028,14 01160003081,1.40E+12,3 ASHBY ST SW, ,0, 14 01160003081,0,3081, ,14 011600030819,CONVENIENCE FOOD MARKET 348,T,Ashview Heights,1.40E+12,C,photos\86\32082\img_rpt-taylortabatha_at_bellsouth_dot_net-2012-1-2-13-0-29_1.jpg,Good,Good,Yes,N
52948,52645,2010,1117 LEE ST,14 01190005114,14 011900051143,14 -0119-0005-114-3,5,PARKASH MANJIT, ,2310 HOPEWELL PLANTATION,ALPHARETTA GA 30004, , ,348,C603,C3,C,619700,247880,85560,162320, ,0.69,0,1980, ,2010,6,0, ,114,20101028,14 01190005114,1.40E+12,1117 LEE ST, ,0, 14 01190005114,0,5114, ,14 011900051143,CONVENIENCE FOOD MARKET 348,S,Oakland City,1.40E+12,C,0,Poor,Deterirated,Yes,Y
53549,52576,2010,1097 LEE ST SW,14 01190005018,14 011900050186,14 -0119-0005-018-6,5,CHUNG HAK SOO, ,1097 LEE ST SW,ATLANTA GA 30310, , ,348,C603,C3,C,136900,54760,9920,44840, ,0.15,0,1974, ,2010,6,0, ,18,20101028,14 01190005018,1.40E+12,1097 LEE ST SW, ,0, 14 01190005018,0,5018, ,14 011900050186,CONVENIENCE FOOD MARKET 348,S,Oakland City,1.40E+12,C,0,Poor,Deterirated,Yes,Y
55260,54076,2010,1469 CAMPBELLTON RD SW,14 01360001010,14 013600010106,14 -0136-0001-010-6,05Q,AHLUWALIA GUR P, ,1625 PINETREE PASS LN SW,LILBURN GA 30047 5666, , ,348,C603,C3,C,803600,321440,219520,101920, ,0.43,0,1998, ,2010,6,0, ,10,20101028,14 01360001010,1.40E+12,1469 CAMPBELLTON RD SW, ,0, 14 01360001010,0,1010, ,14 013600010106,CONVENIENCE FOOD MARKET 348,S,Venetian Hills,1.40E+12,C,photos\124\178760\img_rpt-allensr_at_tapinspect_dot_com-2012-5-23-11-15-56_1.jpg,Fair,Fair,Yes,N
55801,55494,2010,598 CASCADE AVE SW,14 0139  LL026,14 0139  LL0261,14 -0139-  LL-026-1,5,E S CASADE ONE LLC, ,55 WASHINGTON ST # 612,BROOKLYN NY 11223, , ,347,C603,C4,C,5437500,2175000,1101800,1073200, ,3.65,0,1994, ,2010,6,0, ,26,20101028,14 0139  LL026,140139LL026,598 CASCADE AVE SW, ,0, 14 0139  LL026,0,L026, ,14 0139  LL0261,SUPERMARKET 347,T,West End,140139LL026,C,photos\50\136580\img_rpt-tjhill11_at_yahoo_dot_com-2012-3-15-11-52-56_2.jpg,Good,Good,Yes,N
55863,55715,2010,1450 DONNELLY AVE SW,14 01390003095,14 013900030952,14 -0139-0003-095-2,5,PALADINS PARTNERS LLC, ,5317 T L BOWER WAY,FLOWERY BRANCH GA 30542 2898, , ,333,C603,C3,C,669900,267960,117360,150600, ,0.85,0,1969, ,2010,6,0, ,95,20101028,14 01390003095,1.40E+12,1450 DONNELLY AVE SW, ,0, 14 01390003095,0,3095, ,14 013900030952,SERVICE STATION WITH BAYS 333,T,West End,1.40E+12,C,photos\124\182349\img_rpt-allensr_at_tapinspect_dot_com-2012-5-29-11-7-25_1.jpg,Fair,Fair,Yes,N
56772,56604,2010,1355 RALPH D ABERNATHY BLVD SW,14 01400008110,14 014000081101,14 -0140-0008-110-1,5,KAMSHAN L L C, ,115 ARBOR GATE,PEACHTREE CITY GA 30269, , ,348,C603,C3,C,692300,276920,87600,189320, ,0.71,0,1985, ,2010,6,0, ,110,20101028,14 01400008110,1.40E+12,1355 RALPH D ABERNATHY BLVD SW, ,0, 14 01400008110,0,8110, ,14 014000081101,CONVENIENCE FOOD MARKET 348,T,West End,1.40E+12,C,photos\124\183497\img_rpt-allensr_at_tapinspect_dot_com-2012-5-30-10-24-36_1.jpg,Poor,Fair,Yes,N
57132,56475,2010,LUCILE AVE SW,14 01400007001,14 014000070013,14 -0140-0007-001-3,5,ANDERSON PAUL S TR, ,0 .,. . ., , ,323,C603,C3,C,110200,44080,7080,37000, ,0.05,0,1930, ,2010,6,0, ,1,20101028,14 01400007001,1.40E+12,LUCILE AVE SW, ,0, 14 01400007001,0,7001, ,14 014000070013,FOOD STANDS 323,T,Westview,1.40E+12,C,0, , , , 
57140,56484,2010,1371 RALPH D ABERNATHY BLVD SW,14 01400007012,14 014000070120,14 -0140-0007-012-0,5,LIU & LIU LLC, ,421 BELGRAVE LN,TUCKER GA 30084, , ,323,C603,C3,C,150640,60260,42080,18180, ,0.05,0,0, ,2010,6,0, ,12,20101028,14 01400007012,1.40E+12,1371 RALPH D ABERNATHY BLVD SW, ,0, 14 01400007012,0,7012, ,14 014000070120,FOOD STANDS 323,T,Westview,1.40E+12,C,photos\124\183500\img_rpt-allensr_at_tapinspect_dot_com-2012-5-30-10-33-52_1.jpg,Poor,Poor,Yes,N
57189,58845,2010,1285 JOSEPH E BOONE BLVD NW,14 01430010025,14 014300100254,14 -0143-0010-025-4,5,P ONE PROPERTIES LLC, ,1858 INDEPENDENCE SQ STE D,ATLANTA GA 30338, , ,334,C408,C3,C,102500,41000,4840,36160, ,0,0,1980, ,2010,6,0, ,25,20101028,14 01430010025,1.40E+12,1285 JOSEPH E BOONE BLVD NW, ,0, 14 01430010025,0,25, ,14 014300100254,SERVICE STATION W/O BAYS 334,K,Bankhead,1.40E+12,C,photos\91\73470\img_rpt-shandrarjones_at_gmail_dot_com-2012-1-20-11-53-8_1.jpg,Good,Good,Yes,N
57218,58443,2010,568 CHAPPELL RD,14 01430001035,14 014300010354,14 -0143-0001-035-4,5,BLUE STAR INVESTORS LLC, ,568 LANE ST,ROCKMART GA 30153, , ,348,C408,C3,C,1689600,675840,488680,187160, ,0,0,1970, ,2010,6,0, ,35,20101028,14 01430001035,1.40E+12,568 CHAPPELL RD, ,0, 14 01430001035,0,1035, ,14 014300010354,CONVENIENCE FOOD MARKET 348,J,Grove Park,1.40E+12,C,photos\123\147473\img_rpt-shandra_at_tapinspect_dot_com-2012-4-4-16-11-18_1.jpg,Good,Good,Yes,N
57382,58485,2010,575 CHAPPELL RD NW,14 01430002057,14 014300020577,14 -0143-0002-057-7,5,CHAPPELL MK L L C, ,80 SENOIA CT,SENOIA GA 30276, , ,348,C408,C3,C,882000,352800,154080,198720, ,0.83,0,1998, ,2010,6,0, ,57,20101028,14 01430002057,1.40E+12,575 CHAPPELL RD NW, ,0, 14 01430002057,0,2057, ,14 014300020577,CONVENIENCE FOOD MARKET 348,K,Bankhead,1.40E+12,C,photos\87\72087\img_rpt-sotherynop_at_gmail_dot_com-2012-1-12-10-29-31_1.jpg,Good,Good,Yes,N
59110,60344,2010,1739 M L KING JR DR SW,14 01480001107,14 014800011076,14 -0148-0001-107-6,5,AP AT PROPERTIES LLC, ,1720 MLK JR DR,ATLANTA GA 30314, , ,348,C409,C3,C,446800,178720,52080,126640, ,0,0,1972, ,2010,6,0, ,107,20101028,14 01480001107,1.40E+12,1739 M L KING JR DR SW, ,0, 14 01480001107,0,1107, ,14 014800011076,CONVENIENCE FOOD MARKET 348,K,Mozley Park,1.40E+12,C,photos\91\84783\img_rpt-shandrarjones_at_gmail_dot_com-2012-1-26-11-40-7_1.jpg,Good,Good,Yes,N
59324,60402,2010,1720 M L KING JR DR SW,14 01480002126,14 014800021265,14 -0148-0002-126-5,5,ANIRIN INC, ,3599 MILL CREEK RD NE,ATLANTA GA 30319, , ,348,C409,C3,C,720615,288250,46290,241960, ,0.34,0,2002, ,2010,6,0, ,126,20101028,14 01480002126,1.40E+12,1720 M L KING JR DR SW, ,0, 14 01480002126,0,2126, ,14 014800021265,CONVENIENCE FOOD MARKET 348,K,Mozley Park,1.40E+12,C,photos\86\86019\img_rpt-taylortabatha_at_bellsouth_dot_net-2012-1-26-11-39-37_1.jpg,Good,Good,Yes,N
59325,60404,2010,1681 RALPH D ABERNATHY BLVD SW,14 01480002128,14 014800021281,14 -0148-0002-128-1,5,PALADINS PARTNERS LLC, ,5317 T L BOWER WAY,FLOWERY BRANCH GA 30542 2898, , ,348,C601,C3,C,312900,125160,61840,63320, ,0.51,0,1983, ,2010,6,0, ,128,20101028,14 01480002128,1.40E+12,1681 RALPH D ABERNATHY BLVD SW, ,0, 14 01480002128,0,2128, ,14 014800021281,CONVENIENCE FOOD MARKET 348,I,I2,1.40E+12,C,photos\124\184765\img_rpt-allensr_at_tapinspect_dot_com-2012-6-1-10-4-13_1.jpg,Fair,Good,Yes,N
60125,59364,2010,1568 DONALD LEE HOLLOWELL PKWY NW,14 01460003005,14 014600030052,14 -0146-0003-005-2,05V,VU ANTHONY & TRAN LANH, ,1568 BANKHEAD HWY,ATLANTA GA 30318, , ,348,C409,C3,C,306100,122440,29840,92600, ,0,0,1964, ,2010,6,0, ,5,20101028,14 01460003005,1.40E+12,1568 DONALD LEE HOLLOWELL PKWY NW, ,0, 14 01460003005,0,3005, ,14 014600030052,CONVENIENCE FOOD MARKET 348,J,Grove Park,1.40E+12,C,photos\123\147350\img_rpt-shandra_at_tapinspect_dot_com-2012-4-4-14-1-32_2.jpg,Good,Good,Yes,N
60276,59197,2010,1677 DONALD LEE HOLLOWELL PKWY NW,14 01450006034,14 014500060340,14 -0145-0006-034-0,05V,DIMPLE PROPERTIES LLC, ,2754 N DECATUR RD SUITE 118,DECATUR GA 30033, , ,348,C409,C3,C,490600,196240,85560,110680, ,0,0,1956, ,2010,6,0, ,34,20101028,14 01450006034,1.40E+12,1677 DONALD LEE HOLLOWELL PKWY NW, ,0, 14 01450006034,0,6034, ,14 014500060340,CONVENIENCE FOOD MARKET 348,J,Grove Park,1.40E+12,C,photos\153\199277\img_rpt-user20_at_apdsolutions_dot_com-2012-8-9-10-42-46_1.jpg,Good,Good,Yes,N
60411,59650,2010,1617 JOSEPH E BOONE BLVD NW,14 01460012042,14 014600120424,14 -0146-0012-042-4,5,REED AMERICUS & GLORIA J, ,P.O. BOX 2668,DULUTH GA 30096, , ,348,C409,C3,C,466700,186680,62760,123920, ,0,0,1983, ,2010,6,0, ,42,20101028,14 01460012042,1.40E+12,1617 JOSEPH E BOONE BLVD NW, ,0, 14 01460012042,0,2042, ,14 014600120424,CONVENIENCE FOOD MARKET 348,J,Grove Park,1.40E+12,C,photos\27\144281\img_rpt-rrdw777_at_gmail_dot_com-2012-3-30-12-32-42_1.jpg,Good,Good,Yes,N
61306,62133,2010,1072 CASCADE AVE SW,14 01510005043,14 015100050433,14 -0151-0005-043-3,5,TOTAL CONVENIENCE INC, ,1072 CASCADE RD,ATLANTA GA 30311, , ,348,C603,C3,C,1019100,407640,196080,211560, ,0.75,0,1997, ,2010,6,0, ,43,20101028,14 01510005043,1.40E+12,1072 CASCADE AVE SW, ,0, 14 01510005043,0,5043, ,14 015100050433,CONVENIENCE FOOD MARKET 348,S,Cascade Avenue/Road,1.40E+12,C,photos\51\136206\img_rpt-javioushill_at_yahoo_dot_com-2012-3-15-11-9-7_1.jpg,Fair,Good,Yes,N
62287,63216,2010,2000 DELOWE DR SW,14 01670004021,14 016700040212,14 -0167-0004-021-2,05Q,DOLLY ENTERPRISES INC, ,130 BRENNAN DR,TYRONE GA 30290, , ,348,C603,C3,C,501800,200720,56520,144200, ,0.61,0,1980, ,2010,6,0, ,21,20101028,14 01670004021,1.40E+12,2000 DELOWE DR SW, ,0, 14 01670004021,0,4021, ,14 016700040212,CONVENIENCE FOOD MARKET 348,R,Campbellton Road,1.40E+12,C,photos\44\145020\img_rpt-octaveceo_at_yahoo_dot_com-2012-3-30-9-22-51_1.jpg,Fair,Fair,Yes,N
62387,63235,2010,1980 DELOWE DR SW,14 01670004044,14 016700040444,14 -0167-0004-044-4,05Q,DOLLY PROPERTIES LLC, ,130 BRENAN DR,TYRONE GA 30290, , ,348,C603,C3,C,597600,239040,59480,179560, ,0,0,1979, ,2010,X,0, ,44,20101028,14 01670004044,1.40E+12,1980 DELOWE DR SW, ,0, 14 01670004044,0,4044, ,14 016700040444,CONVENIENCE FOOD MARKET 348,R,Campbellton Road,1.40E+12,C,photos\44\145036\img_rpt-octaveceo_at_yahoo_dot_com-2012-3-30-9-20-28_1.jpg,Fair,Good,Yes,N
62906,63372,2010,1975 CAMPBELLTON RD SW,14 01680002040,14 016800020403,14 -0168-0002-040-3,05Q,BRANTLEY CLARENCE, ,1981 VENTIAN DR,ATLANTA GA 30311, , ,348,C602,C3,C,290400,116160,57360,58800, ,0.45,0,2003, ,2010,6,0, ,40,20101028,14 01680002040,1.40E+12,1975 CAMPBELLTON RD SW, ,0, 14 01680002040,0,2040, ,14 016800020403,CONVENIENCE FOOD MARKET 348,S,Venetian Hills,1.40E+12,C,photos\124\178798\img_rpt-allensr_at_tapinspect_dot_com-2012-5-23-10-58-27_1.jpg,Fair,Good,Yes,N
63126,63041,2010,1722 CAMPBELLTON RD SW,14 01530005077,14 015300050779,14 -0153-0005-077-9,05Q,STRONG ENTERPRISES INC, ,2046 STANTON RD,EAST POINT GA 30344, , ,348,C603,C3,C,557700,223080,70200,152880, ,0.65,0,1994, ,2010,6,0, ,77,20101028,14 01530005077,1.40E+12,1722 CAMPBELLTON RD SW, ,0, 14 01530005077,0,5077, ,14 015300050779,CONVENIENCE FOOD MARKET 348,R,R1,1.40E+12,C,photos\124\179926\img_rpt-allensr_at_tapinspect_dot_com-2012-5-24-8-22-32_1.jpg,Fair,Good,Yes,N
65039,64716,2010,1977 M L KING JR DR NW,14 01730002047,14 017300020471,14 -0173-0002-047-1,05S,BPR ENTERPRISE INC, ,1977 MARTIN LUTHER KING JR DR,ATLANTA GA 30310, , ,348,C601,C3,C,636600,254640,93640,161000, ,0.67,0,1985, ,2010,6,0, ,47,20101028,14 01730002047,1.40E+12,1977 M L KING JR DR NW, ,0, 14 01730002047,0,2047, ,14 017300020471,CONVENIENCE FOOD MARKET 348,I,I2,1.40E+12,C,photos\91\84660\img_rpt-shandrarjones_at_gmail_dot_com-2012-1-26-11-52-57_1.jpg,Good,Good,Yes,N
65329,65200,2010,202 ANDERSON AVE NW,14 01740008022,14 017400080227,14 -0174-0008-022-7,5,EZIMORA PAUL, ,5672 FELDWOOD RD,ATLANTA GA 30349, , ,333,C409,C3,C,137400,54960,16240,38720, ,0,0,1978, ,2010,6,0, ,22,20101028,14 01740008022,1.40E+12,202 ANDERSON AVE NW, ,0, 14 01740008022,0,8022, ,14 017400080227,SERVICE STATION WITH BAYS 333,J,Dixie Hills,1.40E+12,C,photos\86\125661\img_rpt-taylortabatha_at_bellsouth_dot_net-2012-2-24-10-9-12_1.jpg,Good,Good,Yes,N
65821,67006,2010,2174 DONALD LEE HOLLOWELL PKWY NW,14 01770017069,14 017700170694,14 -0177-0017-069-4,05S,RKS & SONS INC, ,2174 DONALD LEE HOLLOWELL PKWY NW,ATLANTA GA 30318, , ,347,C410,C3,C,980400,392160,120880,271280, ,0,0,1978, ,2010,S,0, ,69,20101028,14 01770017069,1.40E+12,2174 DONALD LEE HOLLOWELL PKWY NW, ,0, 14 01770017069,0,7069, ,14 017700170694,SUPERMARKET 347,J,Grove Park,1.40E+12,C,photos\153\199369\img_rpt-user20_at_apdsolutions_dot_com-2012-8-9-10-21-34_1.jpg,Not Visible,No Structure,No,Not Visible
66162,66484,2010,1990 DONALD LEE HOLLOWELL PKWY NW,14 01760016001,14 017600160019,14 -0176-0016-001-9,05V,PRINCE TUCKER INC, ,1990 BANKHEAD HWY,ATLANTA GA 30318, , ,348,C409,C3,C,424800,169920,63720,106200, ,0,0,1969, ,2010,6,0, ,1,20101028,14 01760016001,1.40E+12,1990 DONALD LEE HOLLOWELL PKWY NW, ,0, 14 01760016001,0,6001, ,14 017600160019,CONVENIENCE FOOD MARKET 348,J,Grove Park,1.40E+12,C,photos\153\199283\img_rpt-user20_at_apdsolutions_dot_com-2012-8-9-10-33-2_1.jpg,Good,Good,Yes,N
66934,65625,2010,1981 JOSEPH E BOONE BLVD NW,14 01750006063,14 017500060632,14 -0175-0006-063-2,5,KHAN MANAGEMENT INC, ,1981 JOSEPH E BOONE BLVD NW,ATLANTA GA 30314 1118, , ,348,C409,C3,C,423900,169560,93960,75600, ,0,0,1961, ,2010,6,0, ,63,20101028,14 01750006063,1.40E+12,1981 JOSEPH E BOONE BLVD NW, ,0, 14 01750006063,0,6063, ,14 017500060632,CONVENIENCE FOOD MARKET 348,J,Grove Park,1.40E+12,C,photos\130\152034\img_rpt-tabatha_at_tapinspect_dot_com-2012-4-12-11-24-21_1.jpg,Good,Good,Yes,N
67344,68643,2010,2271 CASCADE RD SW,14 01830003053,14 018300030536,14 -0183-0003-053-6,5,ROHRIG INVESTMENT LP, ,3520 PIEDMONT RD NE STE 410,ATLANTA GA 30305 1512, , ,333,C602,C3,C,210000,84000,36720,47280, ,0.17,0,1954, ,2010,6,0, ,53,20101028,14 01830003053,1.40E+12,2271 CASCADE RD SW, ,0, 14 01830003053,0,3053, ,14 018300030536,SERVICE STATION WITH BAYS 333,S,Cascade Avenue/Road,1.40E+12,C,photos\91\92309\img_rpt-shandrarjones_at_gmail_dot_com-2012-1-30-10-10-46_1.jpg,Good,Good,Yes,N
67660,68725,2010,2247 CASCADE RD SW,14 01830005048,14 018300050484,14 -0183-0005-048-4,5,DONGOR CORPORATION, ,1465 WESTWOOD AVE SW,ATLANTA GA 30310, , ,348,C603,C3,C,282800,113120,37560,75560, ,0.32,0,1955, ,2010,6,0, ,48,20101028,14 01830005048,1.40E+12,2247 CASCADE RD SW, ,0, 14 01830005048,0,5048, ,14 018300050484,CONVENIENCE FOOD MARKET 348,S,Cascade Avenue/Road,1.40E+12,C,photos\91\92212\img_rpt-shandrarjones_at_gmail_dot_com-2012-1-30-10-8-48_1.jpg,Good,Good,Yes,N
67665,68730,2010,2261 CASCADE RD SW,14 01830005054,14 018300050542,14 -0183-0005-054-2,5,M M K INC, ,115 ARBORGATE,PEACHTREE CITY GA 30269, , ,348,C603,C3,C,593600,237440,86440,151000, ,0.64,0,1985, ,2010,6,0, ,54,20101028,14 01830005054,1.40E+12,2261 CASCADE RD SW, ,0, 14 01830005054,0,5054, ,14 018300050542,CONVENIENCE FOOD MARKET 348,S,Cascade Avenue/Road,1.40E+12,C,photos\91\92116\img_rpt-shandrarjones_at_gmail_dot_com-2012-1-30-10-10-29_1.jpg,Good,Good,Yes,N
69941,69141,2010,2111 CAMPBELLTON RD SW,14 0185  LL048,14 0185  LL0488,14 -0185-  LL-048-8,05Q,CAMPBELLTON AMOCO INC, ,5895 HERITAGE LN,STONE MOUNTAIN GA 30087, , ,348,C602,C3,C,370200,148080,79200,68880, ,0,0,1983, ,2010,6,0, ,48,20101028,14 0185  LL048,140185LL048,2111 CAMPBELLTON RD SW, ,0, 14 0185  LL048,0,L048, ,14 0185  LL0488,CONVENIENCE FOOD MARKET 348,R,Adams Park,140185LL048,C,photos\124\178768\img_rpt-allensr_at_tapinspect_dot_com-2012-5-23-10-23-36_1.jpg,Fair,Good,Yes,N
70381,70929,2010,101 HIGHTOWER RD NW,14 0206  LL015,14 0206  LL0152,14 -0206-  LL-015-2,5,EXCELL INTOWN PROP LLC, ,P O BOX 1565,TAX SECTION,LAWRENCEVILLE GA 30046, ,348,C601,C3,C,623900,249560,53600,195960, ,0,0,1985, ,2010,6,0, ,15,20101028,14 0206  LL015,140206LL015,101 HIGHTOWER RD NW, ,0, 14 0206  LL015,0,L015, ,14 0206  LL0152,CONVENIENCE FOOD MARKET 348,I,Westhaven,140206LL015,C,photos\126\156505\img_rpt-javious_at_tapinspect_dot_com-2012-4-17-13-45-26_1.jpg,Not Visible,No Structure,No,Not Visible
70600,70790,2010,2716 M L KING JR DR SW,14 02050001067,14 020500010672,14 -0205-0001-067-2,5,LYNCH BENJAMIN, ,2716 M L KING JR DR SW,ATLANTA GA 30311, , ,333,C601,C3,C,564000,225600,60360,165240, ,0.69,0,1970, ,2010,6,0, ,67,20101028,14 02050001067,1.40E+12,2716 M L KING JR DR SW, ,0, 14 02050001067,0,1067, ,14 020500010672,SERVICE STATION WITH BAYS 333,I,Harland Terrace,1.40E+12,C,photos\86\85876\img_rpt-taylortabatha_at_bellsouth_dot_net-2012-1-26-13-0-14_1.jpg,Good,Good,Yes,N
70607,70787,2010,2595 M L KING JR DR NW,14 02050001057,14 020500010573,14 -0205-0001-057-3,05S,RAO SAVINDER K &, ,35 LEXINGTON AVE,BETHPAGE NY 11714 3107, , ,348,C601,C3,C,754300,301720,70400,231320, ,0.96,0,1981, ,2010,6,0, ,57,20101028,14 02050001057,1.40E+12,2595 M L KING JR DR NW, ,0, 14 02050001057,0,1057, ,14 020500010573,CONVENIENCE FOOD MARKET 348,I,Harland Terrace,1.40E+12,C,0, , , , 
70754,70836,2010,2324 M L KING JR DR SW,14 02050003049,14 020500030498,14 -0205-0003-049-8,5,VATACS GROUP INC, ,2288 FOXHOUND PKWY,MARIETTA GA 30062, , ,333,C601,C3,C,405600,162240,28280,133960, ,0,0,1963, ,2010,6,0, ,49,20101028,14 02050003049,1.40E+12,2324 M L KING JR DR SW, ,0, 14 02050003049,0,3049, ,14 020500030498,SERVICE STATION WITH BAYS 333,I,Florida Heights,1.40E+12,C,photos\86\85868\img_rpt-taylortabatha_at_bellsouth_dot_net-2012-1-26-12-30-12_1.jpg,Good,Good,Yes,N
70850,70862,2010,2456 M L KING JR DR SW,14 02050003090,14 020500030902,14 -0205-0003-090-2,5,INDORE C STORES INC, ,1000 MAIN ST STE D,STONE MOUNTAIN GA 30083, , ,348,C601,C3,C,784600,313840,116840,197000, ,0.66,0,1991, ,2010,6,0, ,90,20101028,14 02050003090,1.40E+12,2456 M L KING JR DR SW, ,0, 14 02050003090,0,3090, ,14 020500030902,CONVENIENCE FOOD MARKET 348,I,Harland Terrace,1.40E+12,C,0, , , , 
72366,72723,2010,2784 DONALD LEE HOLLOWELL PKWY NW,14 02090006086,14 020900060863,14 -0209-0006-086-3,05S,DONALD LEE HOLLOWELL CENTER LLC, ,PO BOX 1565,LAWRENCEVILLE GA 30046, , ,348,C410,C3,C,420000,168000,18560,149440, ,0,0,1986, ,2010,6,0, ,86,20101028,14 02090006086,1.40E+12,2784 DONALD LEE HOLLOWELL PKWY NW, ,0, 14 02090006086,0,6086, ,14 020900060863,CONVENIENCE FOOD MARKET 348,I,Collier Heights,1.40E+12,C,photos\153\199236\img_rpt-user20_at_apdsolutions_dot_com-2012-8-9-9-54-18_1.jpg,Good,Good,Yes,N
72621,72386,2010,820 JAMES JACKSON PKWY NW,14 02080015028,14 020800150285,14 -0208-0015-028-5,05S,HERSCHS SUPER MARKET INC, ,820 JACKSON PKY NW,ATLANTA GA 30318, , ,347,C410,C3,C,970300,388120,204960,183160, ,0,0,1987, ,2010,6,0, ,28,20101028,14 02080015028,1.40E+12,820 JAMES JACKSON PKWY NW, ,0, 14 02080015028,0,5028, ,14 020800150285,SUPERMARKET 347,G,Brookview Heights,1.40E+12,C,photos\111\54889\img_rpt-donnellspivey_at_rocketmail_dot_com-2012-1-11-17-22-55_1.jpg,Fair,Good,Yes,N
72681,72406,2010,2795 DONALD LEE HOLLOWELL PKWY NW,14 02090001050,14 020900010504,14 -0209-0001-050-4,05S,DOUBLE A K LLC, ,3223 ARBOR RIDGE DR,ATLANTA GA 30340, , ,348,C410,C3,C,570900,228360,79240,149120, ,0,0,1987, ,2010,6,0, ,50,20101028,14 02090001050,1.40E+12,2795 DONALD LEE HOLLOWELL PKWY NW, ,0, 14 02090001050,0,1050, ,14 020900010504,CONVENIENCE FOOD MARKET 348,G,Brookview Heights,1.40E+12,C,photos\111\54940\img_rpt-donnellspivey_at_rocketmail_dot_com-2012-1-11-16-53-21_1.jpg,Fair,Poor,Yes,N
73169,71894,2010,2656 DONALD LEE HOLLOWELL PKWY NW,14 0208  LL014,14 0208  LL0143,14 -0208-  LL-014-3,05S,SK INTERNATIONAL INC, ,2656 BANKHEAD HWY NW,ATLANTA GA 30318, , ,348,C410,C3,C,545200,218080,70160,147920, ,0,0,1955, ,2010,6,0, ,14,20101028,14 0208  LL014,140208LL014,2656 DONALD LEE HOLLOWELL PKWY NW, ,0, 14 0208  LL014,0,L014, ,14 0208  LL0143,CONVENIENCE FOOD MARKET 348,I,Collier Heights,140208LL014,C,photos\153\199412\img_rpt-user20_at_apdsolutions_dot_com-2012-8-9-9-58-46_1.jpg,Good,Good,Yes,N
73274,71921,2010,2621 DONALD LEE HOLLOWELL PKWY NW,14 02080001064,14 020800010646,14 -0208-0001-064-6,05S,BOOTWALA ANIS, ,3008 VINE CIR,DECATUR GA 30033, , ,326,C410,C3,C,165000,66000,37720,28280, ,0.56,0,1985, ,2010,6,0, ,64,20101028,14 02080001064,1.40E+12,2621 DONALD LEE HOLLOWELL PKWY NW, ,0, 14 02080001064,0,1064, ,14 020800010646,CONVENIENCE / FAST FOOD MARKET 326*,J,Center Hill,1.40E+12,C,photos\153\199238\img_rpt-user20_at_apdsolutions_dot_com-2012-8-9-10-0-58_1.jpg,Good,Good,Yes,N
73987,74727,2010,2989 CAMPBELLTON RD SW,14 02190002023,14 021900020238,14 -0219-0002-023-8,05Q,TUCKER INVESTMENT CORPORATION, ,2989 CAMPBELLTON RD SW,ATLANTA GA 30311, , ,348,C915,C3,C,478200,191280,66120,125160, ,0.39,0,1955, ,2010,6,0, ,23,20101028,14 02190002023,1.40E+12,2989 CAMPBELLTON RD SW, ,0, 14 02190002023,0,2023, ,14 021900020238,CONVENIENCE FOOD MARKET 348,R,Southwest,1.40E+12,C,photos\124\178761\img_rpt-allensr_at_tapinspect_dot_com-2012-5-23-9-28-41_1.jpg,Good,Good,Yes,N
74089,74752,2010,2900 CAMPBELLTON RD SW,14 02190002072,14 021900020725,14 -0219-0002-072-5,05Q,HIRAM PROPERTIES INC, ,4368 SLEEPY HOLLOW CV,LILBURN GA 30047, , ,348,C915,C3,C,413550,165420,54520,110900, ,0.44,0,1969, ,2010,6,0, ,72,20101028,14 02190002072,1.40E+12,2900 CAMPBELLTON RD SW, ,0, 14 02190002072,0,2072, ,14 021900020725,CONVENIENCE FOOD MARKET 348,R,Southwest,1.40E+12,C,photos\124\179879\img_rpt-allensr_at_tapinspect_dot_com-2012-5-24-10-18-41_1.jpg,Fair,Fair,Yes,N
74132,74747,2010,2695 CAMPBELLTON RD SW,14 02190002067,14 021900020675,14 -0219-0002-067-5,05Q,STRONG ENTERPRISES INC, ,2046 STANTON RD,EAST POINT GA 30344, , ,348,C915,C3,C,520800,208320,3840,204480, ,0.91,0,1968, ,2010,6,0, ,67,20101028,14 02190002067,1.40E+12,2695 CAMPBELLTON RD SW, ,0, 14 02190002067,0,2067, ,14 021900020675,CONVENIENCE FOOD MARKET 348,R,Southwest,1.40E+12,C,photos\124\179872\img_rpt-allensr_at_tapinspect_dot_com-2012-5-24-10-1-38_1.jpg,Poor,No Structure,Yes,N
75908,75442,2010,GREENBRIAR PKWY SW,14 0229  LL058,14 0229  LL0585,14 -0229-  LL-058-5,05Q,AYAS ENTERPRISES INC, ,3040 HEADLAND DR,ATLANTA GA 30311, , ,348,C915,C3,C,704900,281960,116720,165240, ,0.69,0,1989, ,2010,6,0, ,58,20101028,14 0229  LL058,140229LL058,GREENBRIAR PKWY SW, ,0, 14 0229  LL058,0,L058, ,14 0229  LL0585,CONVENIENCE FOOD MARKET 348,R,Greenbriar,140229LL058,C,0,Poor,Deteriorated,Yes,Y
75955,75443,2010,3030 FOUNTAINBLEAU SW,14 0229  LL059,14 0229  LL0593,14 -0229-  LL-059-3,05Q,KROGER CO THE, ,2175 PARKLAKE DR NE,ATLANTA GA 30345, , ,347,C915,C4,C,8081300,3232520,2063240,1169280, ,9.04,0,2002, ,2010,6,0, ,59,20101028,14 0229  LL059,140229LL059,3030 FOUNTAINBLEAU SW, ,0, 14 0229  LL059,0,L059, ,14 0229  LL0593,SUPERMARKET 347,R,Greenbriar,140229LL059,C,0,Poor,Deteriorated,Yes,Y
75956,75447,2010,GREENBRIAR PKWY SW,14 0229  LL066,14 0229  LL0668,14 -0229-  LL-066-8,05Q,GREENBRIAR MALL TWO THOUSAND, ,2481 GREENBRIAR PKWY SW,CO SUPER DISC MARKET,ATLANTA GA 30331, ,347,C915,C4,C,5204400,2081760,1105440,976320, ,0,0,1993, ,2010,6,0, ,66,20101028,14 0229  LL066,140229LL066,GREENBRIAR PKWY SW, ,0, 14 0229  LL066,0,L066, ,14 0229  LL0668,SUPERMARKET 347,R,Greenbriar,140229LL066,C,0,Poor,Deteriorated,Yes,Y
76170,75506,2010,3113 CAMPBELLTON RD SW,14 0230  LL060,14 0230  LL0608,14 -0230-  LL-060-8,05Q,RIZ MAR VENTURES INC, ,3113 CAMPBELLTON RD SW,RM 1721B,ATLANTA GA 30311, ,348,C915,C3,C,478400,191360,56200,135160, ,0.5,0,1982, ,2010,6,0, ,60,20101028,14 0230  LL060,140230LL060,3113 CAMPBELLTON RD SW, ,0, 14 0230  LL060,0,L060, ,14 0230  LL0608,CONVENIENCE FOOD MARKET 348,R,Southwest,140230LL060,C,photos\124\178777\img_rpt-allensr_at_tapinspect_dot_com-2012-5-23-8-32-4_1.jpg,Poor,Fair,Yes,N
76268,75517,2010,3130 CAMPBELLTON RD SW 1,14 0230  LL093,14 0230  LL0939,14 -0230-  LL-093-9,05Q,CROTHERS HEATHER, ,5401 ST.GEORGE TRC,HIRAM GA 30141, , ,323,C915,C3,C,359500,143800,13800,130000, ,0.44,0,1975, ,2010,6,0, ,93,20101028,14 0230  LL093,140230LL093,3130 CAMPBELLTON RD SW 1, ,0, 14 0230  LL093,0,L093, ,14 0230  LL0939,FOOD STANDS 323,R,Southwest,140230LL093,C,photos\83\139686\img_rpt-willc0427_at_gmail_dot_com-2012-3-22-22-38-54_1.jpg,Poor,Poor,Yes,N
76675,77217,2010,3102 M L KING JR DR SW,14 02370002021,14 023700020210,14 -0237-0002-021-0,5,HEAD DISTRIBUTING CO, ,3102 M L KING JR DR SW,ATLANTA GA 30311, , ,348,C601,C3,C,204000,81600,31400,50200, ,0.21,0,1970, ,2010,6,0, ,21,20101028,14 02370002021,1.40E+12,3102 M L KING JR DR SW, ,0, 14 02370002021,0,2021, ,14 023700020210,CONVENIENCE FOOD MARKET 348,I,I1,1.40E+12,C,photos\86\85959\img_rpt-taylortabatha_at_bellsouth_dot_net-2012-1-26-13-12-14_1.jpg,Good,Good,Yes,N
76872,77270,2010,3235 M L KING JR DR NW,14 02370005020,14 023700050209,14 -0237-0005-020-9,05S,BULBUL ENTERPRISE INC, ,3235 MLK.JR DR,ATLANTA GA 30311, , ,348,C503,C3,C,619400,247760,84840,162920, ,0.65,0,1994, ,2010,6,0, ,20,20101028,14 02370005020,1.40E+12,3235 M L KING JR DR NW, ,0, 14 02370005020,0,5020, ,14 023700050209,CONVENIENCE FOOD MARKET 348,I,I1,1.40E+12,C,photos\91\84712\img_rpt-shandrarjones_at_gmail_dot_com-2012-1-26-13-18-28_1.jpg,Good,Good,Yes,N
76876,77274,2010,3255 M L KING JR DR NW,14 02370005029,14 023700050290,14 -0237-0005-029-0,05S,THIRY TWO FIFTY FIVE  MLK CENTER LLC, ,2875 UNIVERSITY PKWY,LAWRENCEVILLE GA 30043, , ,348,C503,C3,C,835400,334160,58640,275520, ,0,0,1989, ,2010,6,0, ,29,20101028,14 02370005029,1.40E+12,3255 M L KING JR DR NW, ,0, 14 02370005029,0,5029, ,14 023700050290,CONVENIENCE FOOD MARKET 348,I,I1,1.40E+12,C,0, , , , 
76881,77278,2010,HARWELL RD NW,14 02370005034,14 023700050340,14 -0237-0005-034-0,05S,ANGELS FOOD & GAS INC, ,3221 M L KING JR DR,ATLANTA GA 30311, , ,348,C601,C3,C,425610,170240,67720,102520, ,0.63,0,1980, ,2010,6,0, ,34,20101028,14 02370005034,1.40E+12,HARWELL RD NW, ,0, 14 02370005034,0,5034, ,14 023700050340,CONVENIENCE FOOD MARKET 348,I,I1,1.40E+12,C,0, , , , 
77320,77209,2010,3202 M L KING JR DR SW,14 02370001030,14 023700010302,14 -0237-0001-030-2,05S,AZAO LLC, ,3202 MARTIN LUTHER KING JR DR,ATLANTA GA 30311, , ,348,C503,C3,C,205000,82000,24880,57120, ,0,0,1969, ,2010,6,0, ,30,20101028,14 02370001030,1.40E+12,3202 M L KING JR DR SW, ,0, 14 02370001030,0,1030, ,14 023700010302,CONVENIENCE FOOD MARKET 348,I,I1,1.40E+12,C,photos\86\85967\img_rpt-taylortabatha_at_bellsouth_dot_net-2012-1-26-13-16-53_1.jpg,Good,Good,Yes,N
78256,79058,2010,3601 M L KING JR DR SW,14 02430009001,14 024300090017,14 -0243-0009-001-7,05S,M M K INC, ,115 ARBORGATE,PEACHTREE CITY GA 30269, , ,348,C503,C3,C,448000,179200,67160,112040, ,0,0,1987, ,2010,6,0, ,1,20101028,14 02430009001,1.40E+12,3601 M L KING JR DR SW, ,0, 14 02430009001,0,9001, ,14 024300090017,CONVENIENCE FOOD MARKET 348,H,Adamsville,1.40E+12,C,photos\91\84702\img_rpt-shandrarjones_at_gmail_dot_com-2012-1-26-13-35-0_1.jpg,Good,Good,Yes,N
78492,78912,2010,3550 M L KING JR DR SW,14 02430003068,14 024300030682,14 -0243-0003-068-2,05S,PARK MI NAM, ,3550 MARTIN L KING JR DR,ATLANTA GA 30331, , ,348,C503,C3,C,418000,167200,8240,158960, ,0.61,0,1969, ,2010,6,0, ,68,20101028,14 02430003068,1.40E+12,3550 M L KING JR DR SW, ,0, 14 02430003068,0,3068, ,14 024300030682,CONVENIENCE FOOD MARKET 348,H,Adamsville,1.40E+12,C,photos\86\85930\img_rpt-taylortabatha_at_bellsouth_dot_net-2012-1-26-13-32-14_1.jpg,Good,Good,Yes,N
78569,79317,2010,3330 M L KING JR DR SW,14 02440008077,14 024400080777,14 -0244-0008-077-7,5,MLK & TWO EIGHTY FIVE CENTER LLC, ,3330 MARTIN LUTHER KING DR,ATLANTA GA 30303, , ,326,C503,C3,C,882200,352880,15320,337560, ,0,0,0, ,2010,6,0, ,77,20101028,14 02440008077,1.40E+12,3330 M L KING JR DR SW, ,0, 14 02440008077,0,8077, ,14 024400080777,CONVENIENCE / FAST FOOD MARKET 326*,H,Adamsville,1.40E+12,C,photos\86\85889\img_rpt-taylortabatha_at_bellsouth_dot_net-2012-1-26-13-23-31_1.jpg,Good,Good,Yes,N
79877,80843,2010,3580 CAMPBELLTON RD SW,14 0252  LL051,14 0252  LL0510,14 -0252-  LL-051-0,05Q,RACETRAC PETROLEUM INC, ,3225 CUMBERLAND BLVD SE STE 100,ATLANTA GA 30339 6408, , ,348,C504,C3,C,1166200,466480,219280,247200, ,1.03,0,2004, ,2010,6,0, ,51,20101028,14 0252  LL051,140252LL051,3580 CAMPBELLTON RD SW, ,0, 14 0252  LL051,0,L051, ,14 0252  LL0510,CONVENIENCE FOOD MARKET 348,P,P2,140252LL051,C,photos\83\139709\img_rpt-willc0427_at_gmail_dot_com-2012-3-22-22-26-22_1.jpg,Fair,Good,Yes,N
79878,80844,2010,3550 CAMPBELLTON RD SW,14 0252  LL056,14 0252  LL0569,14 -0252-  LL-056-9,05Q,AMERICAN OIL CO, ,P.O. BOX 1548,WARRENVILLE IL 60555, , ,348,C504,C3,C,686500,274600,80240,194360, ,1.35,0,1987, ,2010,6,0, ,56,20101028,14 0252  LL056,140252LL056,3550 CAMPBELLTON RD SW, ,0, 14 0252  LL056,0,L056, ,14 0252  LL0569,CONVENIENCE FOOD MARKET 348,P,P2,140252LL056,C,photos\83\139670\img_rpt-willc0427_at_gmail_dot_com-2012-3-22-22-35-13_1.jpg,Fair,Fair,Yes,N
81247,82531,2010,3750 CAMPBELLTON RD SW,14F0006  LL153,14F0006  LL1537,14F-0006-  LL-153-7,05Q,HEWATT FAMILY LIMITED PARTNERSHIP, ,P O BOX 1565,LAWRENCEVILLE GA 30046, , ,348,C504,C3,C,214720,85890,31370,54520, ,0,0,1970, ,2010,6,0, ,153,20101028,14F0006  LL153,14F0006LL153,3750 CAMPBELLTON RD SW, ,0, 14F0006  LL153,0,L153, ,14F0006  LL1537,CONVENIENCE FOOD MARKET 348,P,P2,14F0006LL153,C,photos\83\139703\img_rpt-willc0427_at_gmail_dot_com-2012-3-22-22-33-39_1.jpg,Poor,Fair,Yes,N
81287,82532,2010,3640 CAMPBELLTON RD SW,14F0006  LL159,14F0006  LL1594,14F-0006-  LL-159-4,05Q,PETROLEUM REALTY II L L C, ,80 SENOIA CT,SENOIA GA 30276, , ,348,C504,C3,C,302100,120840,60880,59960, ,0,0,1970, ,2010,6,0, ,159,20101028,14F0006  LL159,14F0006LL159,3640 CAMPBELLTON RD SW, ,0, 14F0006  LL159,0,L159, ,14F0006  LL1594,CONVENIENCE FOOD MARKET 348,P,P2,14F0006LL159,C,photos\83\139690\img_rpt-willc0427_at_gmail_dot_com-2012-3-22-22-29-45_1.jpg,Fair,Good,Yes,N
81346,82551,2010,3749 CAMPBELLTON RD SW,14F00060001036,14F000600010362,14F-0006-0001-036-2,05Q,PRESTIGE EQUITY & MANAGEMENT LLC, ,3749 CAMPBELLTON RD,ATLANTA GA 30331, , ,348,C504,C3,C,680600,272240,91800,180440, ,0,0,1987, ,2010,6,0, ,36,20101028,14F00060001036,14F00060001036,3749 CAMPBELLTON RD SW, ,0, 14F00060001036,0,1036, ,14F000600010362,CONVENIENCE FOOD MARKET 348,P,Ben Hill Acres,14F00060001036,C,photos\124\178863\img_rpt-allensr_at_tapinspect_dot_com-2012-5-22-8-31-42_1.jpg,Fair,Fair,Yes,N
81956,82516,2010,2500 FAIRBURN RD SW,14F00050003087,14F000500030874,14F-0005-0003-087-4,5,KIM IN BO, ,2500 FAIRBURN RD SW,ATLANTA GA 30331, , ,333,C504,C3,C,162000,64800,7960,56840, ,0,0,1959, ,2010,6,0, ,87,20101028,14F00050003087,14F00050003087,2500 FAIRBURN RD SW, ,0, 14F00050003087,0,3087, ,14F000500030874,SERVICE STATION WITH BAYS 333,P,Ben Hill Pines,14F00050003087,C,photos\44\101207\img_rpt-octaveceo_at_yahoo_dot_com-2012-2-3-11-34-34_1.jpg,Good,Good,Yes,N
82787,83713,2010,3657 M L KING JR DR SW,14F00140001035,14F001400010354,14F-0014-0001-035-4,05S,WATSON FLORENCE R, ,12850 SIMMONS RD,HAMPTON GA 30228, , ,348,C503,C3,C,600000,240000,142840,97160, ,0,0,1964, ,2010,6,0, ,35,20101028,14F00140001035,14F00140001035,3657 M L KING JR DR SW, ,0, 14F00140001035,0,1035, ,14F001400010354,CONVENIENCE FOOD MARKET 348,H,Adamsville,14F00140001035,C,photos\91\84647\img_rpt-shandrarjones_at_gmail_dot_com-2012-1-26-13-37-41_1.jpg,Good,Good,Yes,N
82831,83715,2010,3660 M L KING JR DR SW,14F00140001044,14F001400010446,14F-0014-0001-044-6,5,PRIME FUEL LLC, ,3660 MARTIN LUTHER KING JR DR SW,ATLANTA GA 30331, , ,348,C503,C3,C,527300,210920,57920,153000, ,0,0,1968, ,2010,6,0, ,44,20101028,14F00140001044,14F00140001044,3660 M L KING JR DR SW, ,0, 14F00140001044,0,1044, ,14F001400010446,CONVENIENCE FOOD MARKET 348,H,Adamsville,14F00140001044,C,photos\86\86155\img_rpt-taylortabatha_at_bellsouth_dot_net-2012-1-26-13-38-3_1.jpg,Good,Good,Yes,N
83800,83374,2010,490 FAIRBURN RD SW,14F0012  LL025,14F0012  LL0259,14F-0012-  LL-025-9,5,DONGOR CORP, ,P O BOX 6657,ATLANTA GA 30315, , ,348,C504,C3,C,1134200,453680,148880,304800, ,0,0,2003, ,2010,6,0, ,25,20101028,14F0012  LL025,14F0012LL025,490 FAIRBURN RD SW, ,0, 14F0012  LL025,0,L025, ,14F0012  LL0259,CONVENIENCE FOOD MARKET 348,H,Fairburn Mays,14F0012LL025,C,photos\44\50306\img_rpt-octaveceo_at_yahoo_dot_com-2012-1-6-14-11-52_1.jpg,Good,Good,Yes,N
87242,87190,2010,4472 CAMPBELLTON RD SW,14F0043  LL054,14F0043  LL0542,14F-0043-  LL-054-2,5,TEENEZ & DC LLC, ,6210 POPLAR TREE,LOUISVILLE KY 40230 1091, , ,348,C505,C3,C,286500,114600,56800,57800, ,0,0,1965, ,2010,6,0, ,54,20101028,14F0043  LL054,14F0043LL054,4472 CAMPBELLTON RD SW, ,0, 14F0043  LL054,0,L054, ,14F0043  LL0542,CONVENIENCE FOOD MARKET 348,P,Elmco Estates,14F0043LL054,C,photos\124\178784\img_rpt-allensr_at_tapinspect_dot_com-2012-5-22-9-57-29_1.jpg,Good,Good,Yes,N
87292,87201,2010,4454 CAMPBELLTON RD SW,14F0043  LL074,14F0043  LL0740,14F-0043-  LL-074-0,5,COLEY LAWRENCE & RUBY A, ,3465 RAVENSWOOD DR,ATLANTA GA 30349, , ,323,C505,C3,C,285700,114280,16280,98000, ,0,0,1997, ,2010,6,0, ,74,20101028,14F0043  LL074,14F0043LL074,4454 CAMPBELLTON RD SW, ,0, 14F0043  LL074,0,L074, ,14F0043  LL0740,FOOD STANDS 323,P,Elmco Estates,14F0043LL074,C,photos\124\177770\img_rpt-allensr_at_tapinspect_dot_com-2012-5-20-10-56-34_1.jpg,Poor,Fair,No,N
87294,87203,2010,2176 COUNTY LINE RD SW,14F0043  LL078,14F0043  LL0781,14F-0043-  LL-078-1,5,MUBARAK ENTERPRISES INC, ,5320 COUNTRY LAKE CT,LILBURN GA 30047, , ,348,C505,C3,C,190700,76280,14360,61920, ,0,0,1967, ,2010,6,0, ,78,20101028,14F0043  LL078,14F0043LL078,2176 COUNTY LINE RD SW, ,0, 14F0043  LL078,0,L078, ,14F0043  LL0781,CONVENIENCE FOOD MARKET 348,P,Elmco Estates,14F0043LL078,C,photos\86\104469\img_rpt-taylortabatha_at_bellsouth_dot_net-2012-2-7-10-46-39_1.jpg,Fair,Fair,No,N
89189,89314,2010,4511 CAMPBELLTON RD SW,14F0065  LL083,14F0065  LL0834,14F-0065-  LL-083-4,5,SIGNATURE REAL ESTATE, ,80 SENOIA CT,SENOIA GA 30276, , ,348,C505,C3,C,1094600,437840,272560,165280, ,0,0,1999, ,2010,6,0, ,83,20101028,14F0065  LL083,14F0065LL083,4511 CAMPBELLTON RD SW, ,0, 14F0065  LL083,0,L083, ,14F0065  LL0834,CONVENIENCE FOOD MARKET 348,P,P1,14F0065LL083,C,photos\83\138956\img_rpt-willc0427_at_gmail_dot_com-2012-3-21-17-37-2_1.jpg,Fair,Fair,Yes,N
91932,90636,2010,1043 VIRGINIA AVE NE,17 00010008062,17 000100080625,17 -0001-0008-062-5,5,HERRINGTON HOLDINGS I LLC, ,995 N HIGHLAND AVE APT 3,ATLANTA GA 30306, , ,333,CA01,C3,C,303000,121200,22520,98680, ,0,0,1967, ,2010,6,0, ,62,20101028,17 00010008062,1.70E+12,1043 VIRGINIA AVE NE, ,0, 17 00010008062,0,8062, ,17 000100080625,SERVICE STATION WITH BAYS 333,F,Virginia Highland,1.70E+12,C,photos\33\134070\img_rpt-juliamhayes_at_bellsouth_dot_net-2012-3-6-13-13-9_1.jpg, , , , 
91979,90635,2010,1023 NORTH HIGHLAND AVE,17 00010008061,17 000100080617,17 -0001-0008-061-7,5,INDORE C STORES INC, ,1000 MAIN ST STE D,STONE MOUNTAIN GA 30083, , ,348,CA01,C3,C,1431300,572520,266400,306120, ,0,0,1979, ,2010,6,0, ,61,20101028,17 00010008061,1.70E+12,1023 NORTH HIGHLAND AVE, ,0, 17 00010008061,0,8061, ,17 000100080617,CONVENIENCE FOOD MARKET 348,F,Virginia Highland,1.70E+12,C,photos\123\148645\img_rpt-shandra_at_tapinspect_dot_com-2012-4-9-11-30-21_1.jpg,Fair,No Structure,Yes,N
92141,92283,2010,2319 CHESHIRE BRIDGE RD,17 0005  LL046,17 0005  LL0463,17 -0005-  LL-046-3,5,GAINES FRANCES C, ,3060 PHARR CT NW # 202,ATLANTA GA 30305, , ,348,C003,C3,C,700000,280000,68080,211920, ,0,0,1955, ,2010,6,0, ,46,20101028,17 0005  LL046,170005LL046,2319 CHESHIRE BRIDGE RD, ,0, 17 0005  LL046,0,L046, ,17 0005  LL0463,CONVENIENCE FOOD MARKET 348,F,Lindridge/Martin Manor,170005LL046,C,0, , , , 
92224,92305,2010,2239 CHESHIRE BRIDGE RD,17 0005  LL094,17 0005  LL0943,17 -0005-  LL-094-3,5,DICKEY DORIAN MARSTON AS TR &, ,P.O. BOX 173,WEYMOUTH MA 02190, , ,348,C003,C3,C,1009300,403720,33160,370560, ,0,0,1950, ,2010,6,0, ,94,20101028,17 0005  LL094,170005LL094,2239 CHESHIRE BRIDGE RD, ,0, 17 0005  LL094,0,L094, ,17 0005  LL0943,CONVENIENCE FOOD MARKET 348,F,Lindridge/Martin Manor,170005LL094,C,0, , , , 
92784,92455,2010,2320 CHESHIRE BRIDGE RD,17 00050002048,17 000500020486,17 -0005-0002-048-6,5,CHESHIRE BRIDGE THIRTY TWENTY THREE LLC, ,16413 N NINETY FIRST ST SUITE C 140,SCOTTSDALE AZ 85260, , ,334,C003,C3,C,909500,363800,86840,276960, ,0,0,1983, ,2010,J,0, ,48,20101028,17 00050002048,1.70E+12,2320 CHESHIRE BRIDGE RD, ,0, 17 00050002048,0,2048, ,17 000500020486,SERVICE STATION W/O BAYS 334,F,Lindridge/Martin Manor,1.70E+12,C,0, , , , 
92823,92271,2010,2353 CHESHIRE BRIDGE RD,17 0005  LL002,17 0005  LL0026,17 -0005-  LL-002-6,5,A S BALLENGER ENTERPRISES INC, ,3987 TAMARACK DR NW,KENNESAW GA 30152 6439, , ,348,C002,C3,C,674300,269720,42960,226760, ,0,0,1974, ,2010,6,0, ,2,20101028,17 0005  LL002,170005LL002,2353 CHESHIRE BRIDGE RD, ,0, 17 0005  LL002,0,L002, ,17 0005  LL0026,CONVENIENCE FOOD MARKET 348,F,Lindridge/Martin Manor,170005LL002,C,0, , , , 
93457,93360,2010,2448 CHESHIRE BRIDGE RD,17 00060003045,17 000600030450,17 -0006-0003-045-0,5,DAIBES GAS HOLDINGS ATLANTA LLC, ,1000 PORTSIDE DR,EDGEWATER NJ 07020, , ,348,C002,C3,C,1688400,675360,233800,441560, ,0,0,1989, ,2010,6,0, ,45,20101028,17 00060003045,1.70E+12,2448 CHESHIRE BRIDGE RD, ,0, 17 00060003045,0,3045, ,17 000600030450,CONVENIENCE FOOD MARKET 348,F,Lindridge/Martin Manor,1.70E+12,C,0, , , , 
94751,95938,2010,3639 PEACHTREE RD NE,17 00100006016,17 001000060162,17 -0010-0006-016-2,5,PEACHTREE ROAD NINE SIXTEEN LLC, ,16413 N NINETY FIRST ST SUITE C 140,SCOTTSDALE AZ 85260, , ,333,C305,C3,C,1419400,567760,68600,499160, ,0,0,1957, ,2010,6,0, ,16,20101028,17 00100006016,1.70E+12,3639 PEACHTREE RD NE, ,0, 17 00100006016,0,6016, ,17 001000060162,SERVICE STATION WITH BAYS 333,B,Ridgedale Park,1.70E+12,C,photos\77\64925\img_rpt-delscomo_at_gmail_dot_com-2012-1-17-17-0-59_1.jpg,Good,Good,Yes,N
98031,98508,2010,3535 PEACHTREE RD NE,17 00450002125,17 004500021254,17 -0045-0002-125-4,05B,E & A I & G LENOX MARKETPLACE, ,P.O. BOX 528,COLUMBIA SC 29202, , ,347,C305,C3,C,3438500,1375400,1375400,0, ,0,0,0, ,2010,M,0, ,125,20101028,17 00450002125,1.70E+12,3535 PEACHTREE RD NE, ,0, 17 00450002125,0,2125, ,17 004500021254,SUPERMARKET 347,B,Lenox,1.70E+12,C,photos\77\66096\img_rpt-delscomo_at_gmail_dot_com-2012-1-18-10-9-1_1.jpg,Good,Good,Yes,N
99091,99675,2010,761 SIDNEY MARCUS BLVD,17 0048  LL064,17 0048  LL0645,17 -0048-  LL-064-5,5,NORO BROADVIEW HOLDING CO NV, ,P.O. BOX 450233,ATLANTA GA 31145 0233, , ,348,C306,C3,C,2059100,823640,289400,534240, ,0.99,0,1997, ,2010,U,0, ,64,20101028,17 0048  LL064,170048LL064,761 SIDNEY MARCUS BLVD, ,0, 17 0048  LL064,0,L064, ,17 0048  LL0645,CONVENIENCE FOOD MARKET 348,B,Lindbergh/Morosgo,170048LL064,C,0, , , , 
99168,99706,2010,635 LINDBERGH DR NE,17 00480002074,17 004800020741,17 -0048-0002-074-1,5,GEORGIA ALABAMA COMMERCIAL INVESTMENTS, ,2875 UNIVERSITY PKWY,LAWRENCEVILLE GA 30043, , ,333,C306,C3,C,1710400,684160,174200,509960, ,0,0,1984, ,2010,6,0,GA,74,20101028,17 00480002074,1.70E+12,635 LINDBERGH DR NE, ,0, 17 00480002074,0,2074, ,17 004800020741,SERVICE STATION WITH BAYS 333,B,Lindbergh/Morosgo,1.70E+12,C,photos\71\36264\img_rpt-ray_dot_zackary_at_gmail_dot_com-2012-1-4-11-27-7_1.jpg,Fair,Fair,Yes,N
99194,99704,2010,639 MOROSGO DR NE,17 00480002067,17 004800020675,17 -0048-0002-067-5,5,S & A FOOD & GAS INC, ,6125 OLD DIXIE HWY,FOREST PARK GA 30297, , ,348,C306,C3,C,1298300,519320,88360,430960, ,0,0,1988, ,2010,6,0, ,67,20101028,17 00480002067,1.70E+12,639 MOROSGO DR NE, ,0, 17 00480002067,0,2067, ,17 004800020675,CONVENIENCE FOOD MARKET 348,B,Lindbergh/Morosgo,1.70E+12,C,photos\71\36252\img_rpt-ray_dot_zackary_at_gmail_dot_com-2012-1-4-12-1-52_1.jpg,Fair,Good,Yes,N
101646,104849,2010,345 PHARR RD NE,17 00600001072,17 006000010729,17 -0060-0001-072-9,05B,GEORGIA ALABAMA COMMERCIAL INVESTMENTS, ,2875 UNIVERSITY PKWY,LAWRENCEVILLE GA 30043, , ,348,C305,C3,C,1431000,572400,64560,507840, ,0.41,0,1968, ,2010,6,0, ,72,20101028,17 00600001072,1.70E+12,345 PHARR RD NE, ,0, 17 00600001072,0,1072, ,17 006000010729,CONVENIENCE FOOD MARKET 348,B,Garden Hills,1.70E+12,C,photos\77\61212\img_rpt-delscomo_at_gmail_dot_com-2012-1-16-10-50-10_1.jpg,Good,Good,Yes,N
101676,105459,2010,3183 PEACHTREE RD NE,17 00610005097,17 006100050971,17 -0061-0005-097-1,05B,THREE ONE EIGHT THREE PEACHTREE ROAD, ,3535 ROSWELL RD # 52,MARIETTA GA 30062, , ,347,C305,C3,C,5246700,2098680,875440,1223240, ,0,0,2008, ,2010,X,0, ,97,20101028,17 00610005097,1.70E+12,3183 PEACHTREE RD NE, ,0, 17 00610005097,0,5097, ,17 006100050971,SUPERMARKET 347,B,Buckhead Village,1.70E+12,C,0, , , , 
101867,105272,2010,3004 PIEDMONT RD NE,17 00600008087,17 006000080870,17 -0060-0008-087-0,5,AJ ENERGY ONE LLC, ,3020 ADRIATIC CT,NORCROSS GA 30071 1207, , ,348,C305,C3,C,2151800,860720,221200,639520, ,0,0,2004, ,2010,6,0, ,87,20101028,17 00600008087,1.70E+12,3004 PIEDMONT RD NE, ,0, 17 00600008087,0,8087, ,17 006000080870,CONVENIENCE FOOD MARKET 348,B,Garden Hills,1.70E+12,C,photos\129\181550\img_rpt-tanish_at_tapinspect_dot_com-2012-5-28-14-53-48_1.jpg,Good,Good,Yes,N
103429,105376,2010,3300 PIEDMONT RD NE,17 00610002005,17 006100020057,17 -0061-0002-005-7,05B,LOGAN GEORGIA ASSOCIATES L P, ,11540 US HWY 92 EAST,SEFFNER FL 33584 7346, , ,326,C305,C3,C,1117900,447160,19160,428000, ,0,0,1994, ,2010,6,0, ,5,20101028,17 00610002005,1.70E+12,3300 PIEDMONT RD NE, ,0, 17 00610002005,0,2005, ,17 006100020057,CONVENIENCE / FAST FOOD MARKET 326*,B,Buckhead Forest,1.70E+12,C,0, , , , 
105756,108479,2010,4499 ROSWELL RD NE,17 00950002028,17 009500020289,17 -0095-0002-028-9,5,ALLEN CHARLES B & SANDRA W, ,780 SUMMIT TRCE,BLAIRSVILLE GA 30512, , ,333,C302,C3,C,880000,352000,19880,332120, ,0,0,1958, ,2010,6,0, ,28,20101028,17 00950002028,1.70E+12,4499 ROSWELL RD NE, ,0, 17 00950002028,0,2028, ,17 009500020289,SERVICE STATION WITH BAYS 333,B,North Buckhead,1.70E+12,C,photos\82\117578\img_rpt-engiron_at_rreevesandassociates_dot_com-2012-2-6-15-36-43_1.jpg,Good,Good,Yes,N
106129,109408,2010,3669 POWERS FERRY RD NW,17 0097  LL042,17 0097  LL0421,17 -0097-  LL-042-1,5,KSSR PROPERTIES LLC, ,3491 MANSIONS PKWY,DULUTH GA 30096, , ,348,C304,C3,C,640000,256000,115360,140640, ,0.47,0,1990, ,2010,6,0, ,42,20101028,17 0097  LL042,170097LL042,3669 POWERS FERRY RD NW, ,0, 17 0097  LL042,0,L042, ,17 0097  LL0421,CONVENIENCE FOOD MARKET 348,B,East Chastain Park,170097LL042,C,0, , , , 
106398,108523,2010,4402 ROSWELL RD NE,17 00950003107,17 009500031070,17 -0095-0003-107-0,5,CLOVERLEAF PROP I LTD, ,5370 OAKDALE RD,SMYRNA GA 30082, , ,333,C302,C3,C,1237200,494880,47760,447120, ,0,0,1985, ,2010,6,0, ,107,20101028,17 00950003107,1.70E+12,4402 ROSWELL RD NE, ,0, 17 00950003107,0,3107, ,17 009500031070,SERVICE STATION WITH BAYS 333,B,East Chastain Park,1.70E+12,C,0, , , , 
107264,108588,2010,4341 ROSWELL RD NE,17 00950004058,17 009500040584,17 -0095-0004-058-4,5,FLAMINGO OIL COMPANY INC, ,319 WEST COUNTRY DR,SUITE 205 NORTH,DULUTH GA 30097, ,348,C302,C3,C,1026200,410480,53560,356920, ,0,0,1985, ,2010,6,0, ,58,20101028,17 00950004058,1.70E+12,4341 ROSWELL RD NE, ,0, 17 00950004058,0,4058, ,17 009500040584,CONVENIENCE FOOD MARKET 348,B,North Buckhead,1.70E+12,C,photos\71\128780\img_rpt-ray_dot_zackary_at_gmail_dot_com-2012-3-1-13-46-55_1.jpg,Poor,Fair,Yes,N
110475,104148,2010,1856 PIEDMONT AVE NE,17 00570008039,17 005700080396,17 -0057-0008-039-6,5,PIEDMONT ROAD 6308 LLC, ,16413 NORTH NINTY FIRST ST SUITE C 140,SCOTTSDALE AZ 85260, , ,348,C005,C3,C,913300,365320,65400,299920, ,0,0,1991, ,2010,6,0, ,39,20101028,17 00570008039,1.70E+12,1856 PIEDMONT AVE NE, ,0, 17 00570008039,0,8039, ,17 005700080396,CONVENIENCE FOOD MARKET 348,F,Piedmont Heights,1.70E+12,C,photos\130\170149\img_rpt-tabatha_at_tapinspect_dot_com-2012-5-8-12-40-19_1.jpg,Good,Good,Yes,N
111241,103991,2010,2200 MONROE DR NE,17 00570003025,17 005700030250,17 -0057-0003-025-0,5,DEMOONEY ROY, ,2200 MONROE DR NE,ATLANTA GA 30324, , ,333,C005,C3,C,811300,324520,32120,292400, ,0,0,1966, ,2010,6,0, ,25,20101028,17 00570003025,1.70E+12,2200 MONROE DR NE, ,0, 17 00570003025,0,3025, ,17 005700030250,SERVICE STATION WITH BAYS 333,F,Piedmont Heights,1.70E+12,C,photos\48\21285\img_rpt-carlene_dot_cush_at_gmail_dot_com-2011-12-28-7-59-0_1.jpg,Good,Good,Yes,Not Visible
111421,103830,2010,1570 MONROE DR NE,17 00560011010,17 005600110103,17 -0056-0011-010-3,5,GEORGIA ALABAMA COMMERCIAL INVESTMENTS, ,2875 UNIVERSITY PKWY,LAWRENCEVILLE GA 30043, , ,348,C006,C3,C,837800,335120,75720,259400, ,0,0,1986, ,2010,6,0, ,10,20101028,17 00560011010,1.70E+12,1570 MONROE DR NE, ,0, 17 00560011010,0,1010, ,17 005600110103,CONVENIENCE FOOD MARKET 348,F,Piedmont Heights,1.70E+12,C,photos\48\21331\img_rpt-carlene_dot_cush_at_gmail_dot_com-2011-12-28-9-49-53_1.jpg,Fair,Fair,Yes,Not Visible
111422,103982,2010,496 PLASTER AVE NE,17 00570002011,17 005700020111,17 -0057-0002-011-1,5,KLIROS G C, ,3044 NANCY CREEK RD NW,ATLANTA GA 30327, , ,348,C001,C3,C,688000,275200,69080,206120, ,0,0,1989, ,2010,6,0, ,11,20101028,17 00570002011,1.70E+12,496 PLASTER AVE NE, ,0, 17 00570002011,0,2011, ,17 005700020111,CONVENIENCE FOOD MARKET 348,E,E1,1.70E+12,C,0, , , , 
111801,103840,2010,1572 PIEDMONT AVE NE,17 00560012008,17 005600120086,17 -0056-0012-008-6,5,CLARK W D & S N, ,3179 MAPLE DR,SUITE 1,ATLANTA GA 30305, ,323,C006,C3,C,377000,150800,31040,119760, ,0,0,1960, ,2010,6,0, ,8,20101028,17 00560012008,1.70E+12,1572 PIEDMONT AVE NE, ,0, 17 00560012008,0,2008, ,17 005600120086,FOOD STANDS 323,F,Piedmont Heights,1.70E+12,C,photos\130\170290\img_rpt-tabatha_at_tapinspect_dot_com-2012-5-8-12-18-45_1.jpg,Good,Good,Yes,N
112407,104059,2010,1842 PIEDMONT AVE NE,17 00570006025,17 005700060257,17 -0057-0006-025-7,5,ONE EIGHT FOUR TWO PIEDMONT, ,990 HAMMOND DR STE 910,ATLANTA GA 30328, , ,333,C005,C3,C,749600,299840,31240,268600, ,0,0,1955, ,2010,6,0, ,25,20101028,17 00570006025,1.70E+12,1842 PIEDMONT AVE NE, ,0, 17 00570006025,0,6025, ,17 005700060257,SERVICE STATION WITH BAYS 333,F,Piedmont Heights,1.70E+12,C,photos\130\170143\img_rpt-tabatha_at_tapinspect_dot_com-2012-5-8-12-35-16_1.jpg,Good,Good,Yes,N
112591,103893,2010,1539 PIEDMONT AVE NE,17 00560014016,17 005600140167,17 -0056-0014-016-7,5,A R BROOKS ENTERPRISES INC, ,3475 LAKE DR # A,SMYRNA GA 30082, , ,348,C006,C3,C,760000,304000,77720,226280, ,0,0,2000, ,2010,6,0, ,16,20101028,17 00560014016,1.70E+12,1539 PIEDMONT AVE NE, ,0, 17 00560014016,0,4016, ,17 005600140167,CONVENIENCE FOOD MARKET 348,F,Morningside/Lenox Park,1.70E+12,C,photos\83\190826\img_rpt-willc0427_at_gmail_dot_com-2012-4-19-14-30-40_1.jpg,Good,Good,Yes,N
118034,120795,2010,970 SPRING ST NW,17 01070006057,17 010700060570,17 -0107-0006-057-0,05C,SHALIZEH PROPERTIES LLC, ,2754 N DECATUR RD SUITE 118,DECATUR GA 30033, , ,348,CB02,C3,C,1200000,480000,7800,472200, ,0,0,1987, ,2010,6,0, ,57,20101028,17 01070006057,1.70E+12,970 SPRING ST NW, ,0, 17 01070006057,0,6057, ,17 010700060570,CONVENIENCE FOOD MARKET 348,E,Midtown,1.70E+12,C,photos\79\44688\img_rpt-ransom_dot_carey_at_gmail_dot_com-2012-1-7-13-26-15_1.jpg,Good,Good,No,N
119441,123495,2010,1875 PEACHTREE RD NE,17 01100003025,17 011000030255,17 -0110-0003-025-5,5,CUMMING JAMES B, ,84 PEACHTREE ST NW # #901,ATLANTA GA 30303, , ,348,C306,C3,C,1179200,471680,73000,398680, ,0,0,1980, ,2010,6,0, ,25,20101028,17 01100003025,1.70E+12,1875 PEACHTREE RD NE, ,0, 17 01100003025,0,3025, ,17 011000030255,CONVENIENCE FOOD MARKET 348,E,Brookwood Hills,1.70E+12,C,0, , , , 
119492,124289,2010,2331 PEACHTREE RD NE,17 01110006002,17 011100060020,17 -0111-0006-002-0,5,SYNERGY PETROLEUM LLC, ,80 SENOIA CT,SENOIA GA 30276, , ,348,C306,C3,C,1492700,597080,147840,449240, ,0.62,0,1985, ,2010,6,0, ,2,20101028,17 01110006002,1.70E+12,2331 PEACHTREE RD NE, ,0, 17 01110006002,0,6002, ,17 011100060020,CONVENIENCE FOOD MARKET 348,B,Peachtree Hills,1.70E+12,C,photos\77\64320\img_rpt-delscomo_at_gmail_dot_com-2012-1-17-15-51-34_1.jpg,Good,Good,Yes,N
119814,123918,2010,2193 PEACHTREE RD NE,17 01110005025,17 011100050252,17 -0111-0005-025-2,5,A N A  DEVELOPMENTS LLC, ,3020 ADRIATIC CT,NORCROSS GA 30071 1207, , ,348,C306,C3,C,2473300,989320,275160,714160, ,0,0,1999, ,2010,6,0, ,25,20101028,17 01110005025,1.70E+12,2193 PEACHTREE RD NE, ,0, 17 01110005025,0,5025, ,17 011100050252,CONVENIENCE FOOD MARKET 348,E,E1,1.70E+12,C,photos\125\150459\img_rpt-zack_at_tapinspect_dot_com-2012-4-10-13-54-29_1.jpg,Fair,Fair,Yes,N
120107,123331,2010,2099 PEACHTREE RD NE,17 0110  LL061,17 0110  LL0614,17 -0110-  LL-061-4,5,SELIG ENTERPRISES INC, ,1100 SPRING ST NW #550,ATLANTA GA 30309 2848, , ,347,C306,C3,C,4500000,1800000,663440,1136560, ,0,0,1993, ,2010,6,0, ,61,20101028,17 0110  LL061,170110LL061,2099 PEACHTREE RD NE, ,0, 17 0110  LL061,0,L061, ,17 0110  LL0614,SUPERMARKET 347,E,E1,170110LL061,C,photos\125\150528\img_rpt-zack_at_tapinspect_dot_com-2012-4-10-13-45-32_1.jpg,Fair,Fair,Yes,N
120270,123342,2010,2060 PEACHTREE RD NW,17 01100001025,17 011000010257,17 -0110-0001-025-7,5,SCOTT & ASSOC PEACHTREE LLC, ,P O BOX 888344,ATLANTA GA 30356, , ,348,C306,C3,C,1241900,496760,112520,384240, ,0,0,1992, ,2010,6,0, ,25,20101028,17 01100001025,1.70E+12,2060 PEACHTREE RD NW, ,0, 17 01100001025,0,1025, ,17 011000010257,CONVENIENCE FOOD MARKET 348,E,E1,1.70E+12,C,0, , , , 
121216,122266,2010,1184 SPRING ST NW,17 01080008053,17 010800080536,17 -0108-0008-053-6,05C,RD LLC, ,8350 ROYAL MELBOURNE WAY,DULUTH GA 30097, , ,333,CB02,C3,C,1785200,714080,93080,621000, ,0,0,1990, ,2010,6,0, ,53,20101028,17 01080008053,1.70E+12,1184 SPRING ST NW, ,0, 17 01080008053,0,8053, ,17 010800080536,SERVICE STATION WITH BAYS 333,E,Midtown,1.70E+12,C,photos\48\15971\img_rpt-carlene_dot_cush_at_gmail_dot_com-2011-12-22-8-23-24_1.jpg,Good,Good,Yes,Not Visible
121458,123436,2010,1888 PEACHTREE RD NW,17 01100002110,17 011000021106,17 -0110-0002-110-6,5,CUMMING JAMES B, ,84 PEACHTREE ST NW,ATLANTA GA 30303, , ,348,C306,C3,C,1740900,696360,273840,422520, ,0,0,2000, ,2010,6,0, ,110,20101028,17 01100002110,1.70E+12,1888 PEACHTREE RD NW, ,0, 17 01100002110,0,2110, ,17 011000021106,CONVENIENCE FOOD MARKET 348,E,Ardmore,1.70E+12,C,0, , , , 
123159,115859,2010,1521 PEACHTREE ST NE,17 01050001001,17 010500010015,17 -0105-0001-001-5,05C,DEWBERRY ANSLEY LLC, ,1545 PEACHTREE ST SUITE 250,ATLANTA GA 30309, , ,333,CB03,C3,C,1971100,788440,77720,710720, ,0,0,1959, ,2010,6,0, ,1,20101028,17 01050001001,1.70E+12,1521 PEACHTREE ST NE, ,0, 17 01050001001,0,1001, ,17 010500010015,SERVICE STATION WITH BAYS 333,E,Midtown,1.70E+12,C,photos\131\182447\img_rpt-kelvin_at_tapinspect_dot_com-2012-5-22-13-52-0_1.jpg,Good,Good,Yes,N
125653,130216,2010,608 FOURTEENTH ST NW,17 01490001003,17 014900010039,17 -0149-0001-003-9,5,AHMED ENTERPRISES II INC, ,608 14TH STREET,ATLANTA GA 30318, , ,348,CB01,C3,C,944500,377800,86200,291600, ,0,0,1985, ,2010,6,0, ,3,20101028,17 01490001003,1.70E+12,608 FOURTEENTH ST NW, ,0, 17 01490001003,0,1003, ,17 014900010039,CONVENIENCE FOOD MARKET 348,E,Home Park,1.70E+12,C,0, , , , 
126153,129104,2010,1695 NORTHSIDE DR NW,17 01470004048,17 014700040483,17 -0147-0004-048-3,5,RD LLC, ,8350 ROYAL MELBORNE WAY,DULUTH GA 30097, , ,333,C307,C3,C,1163300,465320,105400,359920, ,0,0,1959, ,2010,6,0, ,48,20101028,17 01470004048,1.70E+12,1695 NORTHSIDE DR NW, ,0, 17 01470004048,0,4048, ,17 014700040483,SERVICE STATION WITH BAYS 333,E,Loring Heights,1.70E+12,C,0, , , , 
126780,130289,2010,420 FOURTEENTH ST NW,17 01490002087,17 014900020871,17 -0149-0002-087-1,5,KASHLAN RAFIK B, ,242 ARROWHEAD BLVD,JONESBORO GA 30236 1100, , ,326,CB01,C3,C,840200,336080,144080,192000, ,0,0,1994, ,2010,6,0, ,87,20101028,17 01490002087,1.70E+12,420 FOURTEENTH ST NW, ,0, 17 01490002087,0,2087, ,17 014900020871,CONVENIENCE / FAST FOOD MARKET 326*,E,Home Park,1.70E+12,C,photos\25\5148\img_rpt-jwiles_at_apdsolutions_dot_com-2011-12-10-14-12-1_1.jpg,Fair,Good,No,N
127147,130314,2010,329 FOURTEENTH ST NW,17 01490003022,17 014900030227,17 -0149-0003-022-7,5,ATLANTIC PETROLEUM LLC, ,329 FOURTEENTH ST NW,ATLANTA GA 30318 5366, , ,348,CB01,C3,C,396100,158440,26920,131520, ,0,0,1982, ,2010,6,0, ,22,20101028,17 01490003022,1.70E+12,329 FOURTEENTH ST NW, ,0, 17 01490003022,0,3022, ,17 014900030227,CONVENIENCE FOOD MARKET 348,E,Home Park,1.70E+12,C,photos\131\156898\img_rpt-kelvin_at_tapinspect_dot_com-2012-4-19-14-28-32_1.jpg,Fair,Fair,Yes,N
127161,130524,2010,1001 NORTHSIDE DR NW,17 01490005155,17 014900051553,17 -0149-0005-155-3,5,MARATHON OIL COMPANY, ,1001 NORTHSIDE DR NW,ATLANTA GA 30318, , ,348,C405,C3,C,1032200,412880,193080,219800, ,0.47,0,2003, ,2010,6,0, ,155,20101028,17 01490005155,1.70E+12,1001 NORTHSIDE DR NW, ,0, 17 01490005155,0,5155, ,17 014900051553,CONVENIENCE FOOD MARKET 348,E,Home Park,1.70E+12,C,photos\25\1798\img_rpt-jwiles_at_apdsolutions_dot_com-2011-12-8-12-49-25_1.jpg,Good,Good,Yes,N
127985,132039,2010,1892 HOWELL MILL RD NW,17 01530011074,17 015300110741,17 -0153-0011-074-1,5,SAM'S REAL ESTATE HOLDINGS GEORGIA LLC, ,7935 COUNCIL PL SUITE 200,MATTHEWS NC 28105 5000, , ,348,C307,C3,C,1879400,751760,185080,566680, ,0,0,1996, ,2010,6,0, ,74,20101028,17 01530011074,1.70E+12,1892 HOWELL MILL RD NW, ,0, 17 01530011074,0,1074, ,17 015300110741,CONVENIENCE FOOD MARKET 348,C,Wildwood (NPU-C),1.70E+12,C,photos\47\10536\img_rpt-kbroc26_at_gmail_dot_com-2011-12-19-12-7-3_1.jpg,Good,Good,Yes,N
129171,131496,2010,1790 HOWELL MILL RD NW,17 01520001081,17 015200010819,17 -0152-0001-081-9,5,DAIBES GAS HOLDINGS ATLANTA LLC, ,1000 PORTSIDE DR,EDGEWATER NJ 07020, , ,348,C405,C3,C,1477000,590800,167400,423400, ,0,0,1987, ,2010,8,0, ,81,20101028,17 01520001081,1.70E+12,1790 HOWELL MILL RD NW, ,0, 17 01520001081,0,1081, ,17 015200010819,CONVENIENCE FOOD MARKET 348,D,Underwood Hills,1.70E+12,C,0, , , , 
130121,131984,2010,2020 HOWELL MILL RD NW,17 01530006043,17 015300060433,17 -0153-0006-043-3,5,MCW RC GA HOWELL MILL VILLAGE, ,P.O. BOX 790830,SAN ANTONIO TX 78279 0830, , ,347,C307,C3,C,2700000,1080000,331600,748400, ,0,0,2005, ,2010,6,0, ,43,20101028,17 01530006043,1.70E+12,2020 HOWELL MILL RD NW, ,0, 17 01530006043,0,6043, ,17 015300060433,SUPERMARKET 347,C,Springlake,1.70E+12,C,photos\44\17195\img_rpt-octaveceo_at_yahoo_dot_com-2011-12-23-10-12-48_1.jpg,Good,Good,Yes,N
130933,133881,2010,4480 NORTHSIDE DR NW,17 01610002034,17 016100020346,17 -0161-0002-034-6,5,BYARS EMORYS & COBB WILLIAM R, ,9 NORTHLAKE CIR,PEACHTREE CITY GA 30269, , ,348,C301,C3,C,410000,164000,28400,135600, ,0,0,1976, ,2010,6,0, ,34,20101028,17 01610002034,1.70E+12,4480 NORTHSIDE DR NW, ,0, 17 01610002034,0,2034, ,17 016100020346,CONVENIENCE FOOD MARKET 348,A,Mt. Paran/Northside,1.70E+12,C,photos\82\81853\img_rpt-engiron_at_rreevesandassociates_dot_com-2012-1-20-13-45-56_1.jpg,Good,Good,No,N
136352,137182,2010,999 CHATTAHOOCHEE AVE NW,17 01870005028,17 018700050285,17 -0187-0005-028-5,5,MYUNG NOH WOOK & YONG SUK, ,618 W 38TH ST,CHATTANOOGA TN 37410, , ,323,C404,C3,C,342900,137160,29080,108080, ,0,0,1956, ,2010,6,0, ,28,20101028,17 01870005028,1.70E+12,999 CHATTAHOOCHEE AVE NW, ,0, 17 01870005028,0,5028, ,17 018700050285,FOOD STANDS 323,D,Underwood Hills,1.70E+12,C,0, , , , 
136795,138577,2010,2118 DEFOORS FERRY RD NW,17 01940001095,17 019400010959,17 -0194-0001-095-9,5,MAYUARI CORP INC, ,5161 STONE MOUNTAIN HWY,STONE MOUNTAIN GA 30087, , ,348,C401,C3,C,658500,263400,56320,207080, ,0,0,1981, ,2010,6,0, ,95,20101028,17 01940001095,1.70E+12,2118 DEFOORS FERRY RD NW, ,0, 17 01940001095,0,1095, ,17 019400010959,CONVENIENCE FOOD MARKET 348,D,Underwood Hills,1.70E+12,C,photos\71\84918\img_rpt-ray_dot_zackary_at_gmail_dot_com-2012-1-26-13-44-39_1.jpg,Fair,Fair,Yes,N
137393,137047,2010,1176 NEW CHATTAHOOCHEE AVE NW,17 01870001035,17 018700010354,17 -0187-0001-035-4,5,AHN MOON S., ,1974 SYLVAN RD,ATLANTA GA 30310, , ,348,C404,C3,C,445600,178240,17560,160680, ,0,0,1955, ,2010,6,0, ,35,20101028,17 01870001035,1.70E+12,1176 NEW CHATTAHOOCHEE AVE NW, ,0, 17 01870001035,0,1035, ,17 018700010354,CONVENIENCE FOOD MARKET 348,D,Underwood Hills,1.70E+12,C,0, , , , 
137691,136189,2010,1180 COLLIER RD NW,17 01860001053,17 018600010538,17 -0186-0001-053-8,5,Z P GROUP COLLIER RD L L C, ,365 PEACHTREE BATTLE AVE,ATLANTA GA 30305, , ,334,C404,C3,C,427200,170880,49880,121000, ,0,0,1971, ,2010,6,0, ,53,20101028,17 01860001053,1.70E+12,1180 COLLIER RD NW, ,0, 17 01860001053,0,1053, ,17 018600010538,SERVICE STATION W/O BAYS 334,D,Underwood Hills,1.70E+12,C,0, , , , 
137869,136193,2010,COLLIER RD,17 01860001060,17 018600010603,17 -0186-0001-060-3,5,ROCK IT ONE INC, ,3599 MILL CREEK RD NE,ATLANTA GA 30319, , ,348,C404,C3,C,351300,140520,10960,129560, ,0,0,1969, ,2010,6,0, ,60,20101028,17 01860001060,1.70E+12,COLLIER RD, ,0, 17 01860001060,0,1060, ,17 018600010603,CONVENIENCE FOOD MARKET 348,C,C2,1.70E+12,C,0, , , , 
138336,138337,2010,1475 CARROLL DR NW,17 01920001037,17 019200010373,17 -0192-0001-037-3,5,CAMP WILLIAM M, ,1475 CARROLL DR NW,ATLANTA GA 30318, , ,334,C404,C3,C,455200,182080,43160,138920, ,0,0,1970, ,2010,6,0, ,37,20101028,17 01920001037,1.70E+12,1475 CARROLL DR NW, ,0, 17 01920001037,0,1037, ,17 019200010373,SERVICE STATION W/O BAYS 334,D,Hills Park,1.70E+12,C,0, , , , 
139016,139631,2010,1313 WEST PACES FERRY RD NW,17 01980001035,17 019800010351,17 -0198-0001-035-1,5,THIRTEEN THIRTEEN WEST PACES, ,1313 WEST PACES FERRY RD NW,ATLANTA GA 30345, , ,333,C301,C3,C,868900,347560,75360,272200, ,0,0,1970, ,2010,6,0, ,35,20101028,17 01980001035,1.70E+12,1313 WEST PACES FERRY RD NW, ,0, 17 01980001035,0,1035, ,17 019800010351,SERVICE STATION WITH BAYS 333,A,Randall Mill,1.70E+12,C,0, , , , 
139018,139633,2010,3465 NORTHSIDE PKY NW,17 01980001037,17 019800010377,17 -0198-0001-037-7,5,SPENCE A D, ,1950 ROYAL INDUSTRIAL BLVD,AUSTELL GA 30106, , ,348,C301,C3,C,665300,266120,82680,183440, ,0,0,1967, ,2010,6,0, ,37,20101028,17 01980001037,1.70E+12,3465 NORTHSIDE PKY NW, ,0, 17 01980001037,0,1037, ,17 019800010377,CONVENIENCE FOOD MARKET 348,A,Randall Mill,1.70E+12,C,0, , , , 
140805,139597,2010,1400 W PACES FERRY RD,17 0198  LL016,17 0198  LL0163,17 -0198-  LL-016-3,5,GRAHAMS SERVICE STATIONS INC, ,1400 WEST PACES FERRY RD,ATLANTA GA 30327, , ,333,C301,C3,C,506600,202640,56800,145840, ,0,0,1965, ,2010,6,0, ,16,20101028,17 0198  LL016,170198LL016,1400 W PACES FERRY RD, ,0, 17 0198  LL016,0,L016, ,17 0198  LL0163,SERVICE STATION WITH BAYS 333,A,Paces,170198LL016,C,photos\71\128735\img_rpt-ray_dot_zackary_at_gmail_dot_com-2012-2-29-13-34-48_1.jpg,Fair,Fair,Yes,N
141543,143440,2010,1970 MOORES MILL RD NW,17 02300007008,17 023000070082,17 -0230-0007-008-2,05V,BSP PROPERTIES L L C, ,1970 MOORES MILL RD,ATLANTA GA 30318, , ,348,C401,C3,C,517100,206840,43000,163840, ,0,0,1962, ,2010,6,0, ,8,20101028,17 02300007008,1.70E+12,1970 MOORES MILL RD NW, ,0, 17 02300007008,0,7008, ,17 023000070082,CONVENIENCE FOOD MARKET 348,D,D1,1.70E+12,C,0, , , , 
142293,141748,2010,1991 MARIETTA BLV NW,17 0222  LL093,17 0222  LL0932,17 -0222-  LL-093-2,5,DEPENDABLE INC, ,1991 MARIETTA BLVD,SUITE 230,ATLANTA GA 30318, ,348,C404,C3,C,390400,156160,64240,91920, ,0,0,1960, ,2010,6,0, ,93,20101028,17 0222  LL093,170222LL093,1991 MARIETTA BLV NW, ,0, 17 0222  LL093,0,L093, ,17 0222  LL0932,CONVENIENCE FOOD MARKET 348,D,Hills Park,170222LL093,C,photos\27\145376\img_rpt-rrdw777_at_gmail_dot_com-2012-3-31-11-38-58_1.jpg,Fair,Fair,Yes,N
142707,143118,2010,2251 MARIETTA BLV NW,17 02300001055,17 023000010559,17 -0230-0001-055-9,05V,S&S PACKAGE STORE L L C, ,2251 MARIETTA BLVD,ATLANTA GA 30318, , ,348,C401,C3,C,434900,173960,48080,125880, ,0,0,1964, ,2010,6,0, ,55,20101028,17 02300001055,1.70E+12,2251 MARIETTA BLV NW, ,0, 17 02300001055,0,1055, ,17 023000010559,CONVENIENCE FOOD MARKET 348,D,D1,1.70E+12,C,photos\27\145199\img_rpt-rrdw777_at_gmail_dot_com-2012-3-31-11-57-34_1.jpg,Fair,Fair,Yes,N
144356,146472,2010,2079 BOLTON RD NW,17 02520004020,17 025200040203,17 -0252-0004-020-3,05V,RICHARDS RALPH, ,2079 BOLTON RD NW,ATLANTA GA 30318, , ,333,C403,C3,C,300800,120320,20680,99640, ,0,0,1955, ,2010,6,0, ,20,20101028,17 02520004020,1.70E+12,2079 BOLTON RD NW, ,0, 17 02520004020,0,4020, ,17 025200040203,SERVICE STATION WITH BAYS 333,D,Riverside,1.70E+12,C,photos\44\100243\img_rpt-octaveceo_at_yahoo_dot_com-2012-1-30-13-23-10_1.jpg,Good,Good,Yes,N
145152,146733,2010,1913 HOLLYWOOD RD NW,17 02520017018,17 025200170182,17 -0252-0017-018-2,05V,CHOI KWANG W, ,2788 DEFOORS FERRY RD # 302,ATLANTA GA 30318, , ,347,C403,C3,C,137000,54800,4160,50640, ,0,0,0, ,2010,6,0, ,18,20101028,17 02520017018,1.70E+12,1913 HOLLYWOOD RD NW, ,0, 17 02520017018,0,7018, ,17 025200170182,SUPERMARKET 347,D,Riverside,1.70E+12,C,photos\126\158801\img_rpt-javious_at_tapinspect_dot_com-2012-4-19-10-54-40_1.jpg,Poor,Poor,No,Y
146102,146374,2010,2020 BOLTON RD NW,17 0252  LL024,17 0252  LL0240,17 -0252-  LL-024-0,05V,SOHAIR INC, ,1946 ROSWELL RD,MARIETTA GA 30062, , ,348,C403,C3,C,728400,291360,67080,224280, ,0,0,1985, ,2010,6,0, ,24,20101028,17 0252  LL024,170252LL024,2020 BOLTON RD NW, ,0, 17 0252  LL024,0,L024, ,17 0252  LL0240,CONVENIENCE FOOD MARKET 348,D,Riverside,170252LL024,C,photos\44\101436\img_rpt-octaveceo_at_yahoo_dot_com-2012-1-30-10-43-13_1.jpg,Good,Good,Yes,N
157531,148496,2010,3263 BANKHEAD HWY NW,17 02610002081,17 026100020816,17 -0261-0002-081-6,05S,RAYHAAN ENTERPRISES INC, ,3263 BANKHEAD HWY,ATLANTA GA 30331, , ,348,C402,C3,C,1117400,446960,200920,246040, ,0,0,1967, ,2010,6,0, ,81,20101028,17 02610002081,1.70E+12,3263 BANKHEAD HWY NW, ,0, 17 02610002081,0,2081, ,17 026100020816,CONVENIENCE FOOD MARKET 348,G,English Park,1.70E+12,C,photos\44\13273\img_rpt-octaveceo_at_yahoo_dot_com-2011-12-20-11-51-42_1.jpg,Good,Good,Yes,N
157690,148311,2010,3195 BANKHEAD HWY NW,17 0260  LL066,17 0260  LL0661,17 -0260-  LL-066-1,05S,BLESSED FOOD MART INC, ,5331 ENCHANTED COVE,LILBURN GA 30047, , ,348,C402,C3,C,979200,391680,52680,339000, ,0,0,1969, ,2010,6,0, ,66,20101028,17 0260  LL066,170260LL066,3195 BANKHEAD HWY NW, ,0, 17 0260  LL066,0,L066, ,17 0260  LL0661,CONVENIENCE FOOD MARKET 348,G,Brookview Heights,170260LL066,C,photos\44\13305\img_rpt-octaveceo_at_yahoo_dot_com-2011-12-20-11-46-17_1.jpg,Good,Good,Yes,N
157691,148312,2010,3170 BANKHEAD HWY NW,17 0260  LL068,17 0260  LL0687,17 -0260-  LL-068-7,05S,THE W W FOWLER FAMILY LIMITED, ,7514 LEE RD,LITHIA SPRINGS GA 30122 2875, , ,348,C402,C3,C,850000,340000,31640,308360, ,0,0,1988, ,2010,6,0, ,68,20101028,17 0260  LL068,170260LL068,3170 BANKHEAD HWY NW, ,0, 17 0260  LL068,0,L068, ,17 0260  LL0687,CONVENIENCE FOOD MARKET 348,I,Collier Heights,170260LL068,C,photos\44\13349\img_rpt-octaveceo_at_yahoo_dot_com-2011-12-20-12-3-27_1.jpg,Good,Good,Yes,N
158179,148328,2010,3260 BANKHEAD HWY NW,17 02600001024,17 026000010248,17 -0260-0001-024-8,05S,FATIMA INVESTMENTS INC, ,5555 OAKBROOK PKY # #390,NORCROSS GA 30093, , ,348,C402,C3,C,815300,326120,206600,119520, ,0.91,0,1990, ,2010,6,0, ,24,20101028,17 02600001024,1.70E+12,3260 BANKHEAD HWY NW, ,0, 17 02600001024,0,1024, ,17 026000010248,CONVENIENCE FOOD MARKET 348,H,Bankhead/Bolton,1.70E+12,C,photos\44\13322\img_rpt-octaveceo_at_yahoo_dot_com-2011-12-20-11-41-19_1.jpg,Good,Good,Yes,N